"lat","long","station","name","state","county","zipcode"
31.058100,-87.054700,"USH00011084","BREWTON 3 SSE","AL","Escambia","36426"
30.546700,-87.880800,"USH00012813","FAIRHOPE 2 NE","AL","Baldwin","36559"
32.834700,-88.134200,"USH00013160","GAINESVILLE LOCK","AL","Sumter","35464"
32.701700,-87.580800,"USH00013511","GREENSBORO","AL","Hale","36744"
31.870000,-86.254200,"USH00013816","HIGHLAND HOME","AL","Crenshaw","36041"
34.744200,-87.599700,"USH00015749","MUSCLE SHOALS AP","AL","Colbert","35661"
34.173600,-86.813300,"USH00017157","SAINT BERNARD","AL","Cullman","35055"
34.673600,-86.053600,"USH00017304","SCOTTSBORO","AL","Jackson","35769"
32.410000,-87.015300,"USH00017366","SELMA","AL","Dallas","36701"
33.416400,-86.135000,"USH00018024","TALLADEGA","AL","Talladega","35160"
31.541100,-87.883300,"USH00018178","THOMASVILLE","AL","Clarke","36545"
31.807500,-85.972200,"USH00018323","TROY","AL","Pike","36082"
33.211900,-87.616100,"USH00018380","TUSCALOOSA ACFD","AL","Tuscaloosa","35476"
32.014200,-85.746400,"USH00018438","UNION SPRINGS 9 S","AL","Pike","36005"
34.566700,-85.612800,"USH00018469","VALLEY HEAD","AL","DeKalb","35989"
32.369700,-112.860000,"USH00020080","AJO","AZ","Pima","85321"
33.376100,-112.582800,"USH00021026","BUCKEYE","AZ","Maricopa","85326"
36.153300,-109.539400,"USH00021248","CANYON DE CHELLY","AZ","Apache","86503"
33.205800,-111.681900,"USH00021514","CHANDLER HEIGHTS","AZ","Maricopa","85142"
34.349400,-111.698100,"USH00021614","CHILDS","AZ","Gila","85544"
35.268100,-111.742800,"USH00023160","FT VALLEY","AZ","Coconino","86001"
36.052800,-112.150300,"USH00023596","GRAND CANYON NP 2","AZ","Coconino","86023"
34.909400,-110.154400,"USH00024089","HOLBROOK","AZ","Navajo","86025"
35.200000,-114.016700,"USH00024645","KINGMAN #2","AZ","Mohave","86409"
36.864400,-111.602200,"USH00024849","LEES FERRY","AZ","Coconino","86036"
33.404400,-110.870000,"USH00025512","MIAMI","AZ","Gila","85539"
34.154700,-114.289700,"USH00026250","PARKER","CA","San Bernardino","92242"
31.935600,-109.837800,"USH00026353","PEARCE SUNSITES","AZ","Cochise","85606"
34.570600,-112.432200,"USH00026796","PRESCOTT","AZ","Yavapai","86301"
33.673100,-111.150800,"USH00027281","ROOSEVELT 1 WNW","AZ","Gila","85545"
33.080000,-111.741700,"USH00027370","SACATON","AZ","Pinal","85147"
32.815000,-109.680800,"USH00027390","SAFFORD AGRICULTRL CTR","AZ","Graham","85552"
34.517200,-109.402800,"USH00027435","SAINT JOHNS","AZ","Apache","85936"
35.332200,-112.879700,"USH00027716","SELIGMAN","AZ","Yavapai","86337"
31.705600,-110.056900,"USH00028619","TOMBSTONE","AZ","Cochise","85638"
32.229200,-110.953600,"USH00028815","TUCSON WFO","AZ","Pima","85724"
33.816900,-109.983300,"USH00029271","WHITERIVER 1 SW","AZ","Navajo","85941"
33.979200,-112.740300,"USH00029287","WICKENBURG","AZ","Maricopa","85390"
35.240600,-112.190300,"USH00029359","WILLIAMS","AZ","Coconino","86046"
32.611400,-114.635000,"USH00029652","YUMA CITRUS STN","AZ","Yuma","85350"
34.882200,-91.215300,"USH00030936","BRINKLEY","AR","Monroe","72021"
35.084200,-92.428900,"USH00031596","CONWAY","AR","Faulkner","72035"
36.419700,-90.585800,"USH00031632","CORNING","AR","Clay","72422"
36.416400,-93.791700,"USH00032356","EUREKA SPRINGS 3 WNW","AR","Carroll","72632"
36.100600,-94.174400,"USH00032444","FAYETTEVILLE EXP STN","AR","Washington","72762"
36.426100,-94.448100,"USH00032930","GRAVETTE","AR","Benton","72736"
36.494700,-91.535000,"USH00034572","MAMMOTH SPRING","AR","Fulton","72554"
34.573100,-94.249400,"USH00034756","MENA","AR","Polk","71953"
35.604200,-91.274400,"USH00035186","NEWPORT","AR","Jackson","72112"
35.512500,-93.868300,"USH00035512","OZARK 2","AR","Franklin","72949"
34.225600,-92.018900,"USH00035754","PINE BLUFF","AR","Jefferson","71602"
36.263900,-90.968100,"USH00035820","POCAHONTAS 1","AR","Randolph","72455"
33.820300,-93.387800,"USH00035908","PRESCOTT 2 NNW","AR","Nevada","71857"
33.810000,-91.270300,"USH00036253","ROHWER 2 NNE","AR","Desha","71666"
35.302800,-93.636900,"USH00036928","SUBIACO","AR","Logan","72865"
37.874400,-122.258900,"USH00040693","BERKELEY","CA","Alameda","94720"
33.613100,-114.597200,"USH00040924","BLYTHE","AZ","La Paz","85334"
32.954400,-115.558100,"USH00041048","BRAWLEY 2 SW","CA","Imperial","92281"
41.533600,-120.173600,"USH00041614","CEDARVILLE","CA","Modoc","96104"
39.691100,-121.821100,"USH00041715","CHICO UNIV FARM","CA","Butte","95928"
32.640000,-117.085800,"USH00041758","CHULA VISTA","CA","San Diego","91910"
39.091100,-120.948100,"USH00041912","COLFAX","CA","Placer","95736"
32.989700,-116.587200,"USH00042239","CUYAMACA","CA","San Diego","92036"
38.535000,-121.776100,"USH00042294","DAVIS 2 WSW EXP","CA","Yolo","95616"
36.462200,-116.866900,"USH00042319","DEATH VALLEY","CA","Inyo","92328"
38.330600,-120.670600,"USH00042728","ELECTRA P H","CA","Calaveras","95245"
40.809700,-124.160300,"USH00042910","EUREKA WFO WOODLEY IS","CA","Humboldt","95501"
34.704200,-118.427500,"USH00042941","FAIRMONT","CA","Los Angeles","93536"
39.509200,-123.756700,"USH00043161","FT BRAGG 5 N","CA","Mendocino","95437"
36.780000,-119.719400,"USH00043257","FRESNO YOSEMITE AP","CA","Fresno","93612"
36.321900,-119.635600,"USH00043747","HANFORD 1 S","CA","Kings","93230"
41.804200,-123.375800,"USH00043761","HAPPY CAMP RS","CA","Siskiyou","96049"
38.617500,-122.873100,"USH00043875","HEALDSBURG","CA","Sonoma","95448"
36.798100,-118.203600,"USH00044232","INDEPENDENCE","CA","Inyo","93526"
33.708600,-116.215300,"USH00044259","INDIO FIRE STN","CA","Riverside","92201"
39.318300,-120.639200,"USH00044713","LAKE SPAULDING","CA","Placer","95715"
36.381700,-119.026400,"USH00044890","LEMON COVE","CA","Tulare","93221"
37.692200,-121.769200,"USH00044997","LIVERMORE","CA","Alameda","94551"
38.106100,-121.287800,"USH00045032","LODI","CA","San Joaquin","95258"
39.145800,-121.585300,"USH00045385","MARYSVILLE","CA","Sutter","95993"
37.285800,-120.511700,"USH00045532","MERCED","CA","Merced","95341"
41.320600,-122.308100,"USH00045983","MT SHASTA","CA","Siskiyou","96067"
38.277800,-122.264700,"USH00046074","NAPA STATE HOSPITAL","CA","Napa","94559"
34.767500,-114.618900,"USH00046118","NEEDLES AP","CA","San Bernardino","92363"
33.602500,-117.880300,"USH00046175","NEWPORT BEACH HARBOR","CA","Orange","92662"
34.447800,-119.227500,"USH00046399","OJAI","CA","Ventura","93022"
39.745800,-122.199700,"USH00046506","ORLAND","CA","Glenn","95963"
41.308900,-123.531700,"USH00046508","ORLEANS","CA","Humboldt","95556"
34.148300,-118.144700,"USH00046719","PASADENA","CA","Los Angeles","91101"
35.627800,-120.685600,"USH00046730","PASO ROBLES","CA","San Luis Obispo","93446"
38.257800,-122.607800,"USH00046826","PETALUMA AP","CA","Sonoma","94954"
39.936700,-120.947500,"USH00047195","QUINCY","CA","Plumas","95971"
40.517500,-122.298600,"USH00047304","REDDING MUNI AP","CA","Shasta","96002"
34.052800,-117.189400,"USH00047306","REDLANDS","CA","San Bernardino","92374"
35.305600,-120.663900,"USH00047851","SAN LUIS OBISPO POLY","CA","San Luis Obispo","93410"
34.416700,-119.684400,"USH00047902","SANTA BARBARA","CA","Santa Barbara","93101"
36.990600,-121.991100,"USH00047916","SANTA CRUZ","CA","Santa Cruz","95062"
38.438100,-122.697800,"USH00047965","SANTA ROSA","CA","Sonoma","95405"
40.416700,-120.663100,"USH00048702","SUSANVILLE 2SW","CA","Lassen","96130"
39.167800,-120.142800,"USH00048758","TAHOE CITY","CA","Placer","96145"
35.023300,-118.749700,"USH00048839","TEJON RANCHO","CA","Kern","93203"
33.702500,-117.753900,"USH00049087","TUSTIN IRVINE RCH","CA","Orange","92620"
39.146700,-123.210300,"USH00049122","UKIAH","CA","Mendocino","95482"
38.395600,-121.960800,"USH00049200","VACAVILLE","CA","Solano","95688"
35.597500,-119.353100,"USH00049452","WASCO","CA","Kern","93280"
40.722200,-122.933100,"USH00049490","WEAVERVILLE","CA","Trinity","96093"
39.523100,-122.305800,"USH00049699","WILLOWS 6 W","CA","Glenn","95988"
37.750000,-119.589700,"USH00049855","YOSEMITE PARK HQ","CA","Mariposa","95389"
41.703600,-122.640800,"USH00049866","YREKA","CA","Siskiyou","96097"
39.991900,-105.266700,"USH00050848","BOULDER","CO","Boulder","80310"
38.460000,-105.225600,"USH00051294","CANON CITY","CO","Fremont","81244"
39.220300,-105.278300,"USH00051528","CHEESMAN","CO","Douglas","80135"
38.823600,-102.348600,"USH00051564","CHEYENNE WELLS","CO","Cheyenne","80810"
39.242500,-107.963100,"USH00051741","COLLBRAN","CO","Mesa","81646"
37.674200,-106.324700,"USH00052184","DEL NORTE 2E","CO","Rio Grande","81132"
39.626100,-106.035300,"USH00052281","DILLON 1 E","CO","Summit","80497"
38.477500,-102.780800,"USH00052446","EADS","CO","Kiowa","81036"
40.614700,-105.131400,"USH00053005","FT COLLINS","CO","Larimer","80521"
40.260000,-103.815600,"USH00053038","FT MORGAN","CO","Morgan","80705"
39.165300,-108.733100,"USH00053146","FRUITA","CO","Mesa","81521"
38.525800,-106.967500,"USH00053662","GUNNISON 3SW","CO","Gunnison","81231"
37.771700,-107.109700,"USH00053951","HERMIT 7 ESE","CO","Mineral","81130"
38.049400,-102.123600,"USH00054076","HOLLY","CO","Prowers","81047"
38.093600,-102.630600,"USH00054770","LAMAR","CO","Prowers","81092"
38.063600,-103.215300,"USH00054834","LAS ANIMAS","CO","Bent","81038"
37.174200,-105.939200,"USH00055322","MANASSA","CO","Conejos","81148"
38.485800,-107.879200,"USH00055722","MONTROSE #2","CO","Montrose","81401"
38.039200,-103.693300,"USH00057167","ROCKY FORD 2 SE","CO","Otero","81077"
38.085800,-106.144400,"USH00057337","SAGUACHE","CO","Saguache","81149"
40.488300,-106.823300,"USH00057936","STEAMBOAT SPRINGS","CO","Routt","80477"
37.949200,-107.873300,"USH00058204","TELLURIDE 4WNW","CO","San Miguel","81435"
37.178600,-104.486900,"USH00058429","TRINIDAD","CO","Las Animas","81082"
40.058300,-102.218900,"USH00059243","WRAY","CO","Yuma","80758"
41.950000,-73.366700,"USH00062658","FALLS VILLAGE","CT","Litchfield","06031"
41.350600,-72.039400,"USH00063207","GROTON","CT","New London","06340"
41.124700,-73.547500,"USH00067970","STAMFORD 5 N","CT","Fairfield","06903"
41.795000,-72.228300,"USH00068138","STORRS","CT","Tolland","06268"
39.258300,-75.516700,"USH00072730","DOVER","DE","Kent","19977"
38.816100,-75.576100,"USH00073595","GREENWOOD 2NE","DE","Sussex","19950"
38.898300,-75.425000,"USH00075915","MILFORD 2 SE","DE","Sussex","19960"
39.669400,-75.751400,"USH00076410","NEWARK UNIV FARM","DE","New Castle","19717"
39.773900,-75.541400,"USH00079605","WILMINGTON PORTER RES","DE","New Castle","19802"
29.725800,-85.020600,"USH00080211","APALACHICOLA AP","FL","Franklin","32320"
27.218100,-81.873900,"USH00080228","ARCADIA","FL","DeSoto","34266"
27.898600,-81.843300,"USH00080478","BARTOW","FL","Polk","33830"
26.692800,-80.671100,"USH00080611","BELLE GLADE","FL","Palm Beach","33430"
30.724400,-86.093900,"USH00082220","DE FUNIAK SPRINGS 1","FL","Walton","32435"
25.848900,-81.389700,"USH00082850","EVERGLADES","FL","Collier","34139"
29.755000,-81.538900,"USH00082915","FEDERAL POINT","FL","Putnam","32131"
30.658900,-81.463600,"USH00082944","FERNANDINA BEACH","FL","Nassau","32034"
26.101900,-80.201100,"USH00083163","FT LAUDERDALE","FL","Broward","33312"
26.585000,-81.861400,"USH00083186","FT MYERS PAGE FLD","FL","Lee","33907"
27.462200,-80.353900,"USH00083207","FT PIERCE","FL","St. Lucie","34947"
28.803100,-82.312500,"USH00084289","INVERNESS 3 SE","FL","Citrus","34452"
24.555000,-81.752200,"USH00084570","KEY WEST INTL AP","FL","Monroe","33040"
30.185300,-82.594200,"USH00084731","LAKE CITY 2 E","FL","Columbia","32025"
30.451700,-83.411900,"USH00085275","MADISON","FL","Madison","32340"
29.080300,-82.077800,"USH00086414","OCALA","FL","Marion","34480"
30.478100,-87.186900,"USH00086997","PENSACOLA RGNL AP","FL","Escambia","32504"
25.581900,-80.436100,"USH00087020","PERRINE 4W","FL","Miami-Dade","33170"
28.337800,-82.260000,"USH00087851","SAINT LEO","FL","Pasco","33525"
30.393100,-84.353300,"USH00088758","TALLAHASSEE WSO AP","FL","Leon","32304"
28.158600,-82.764400,"USH00088824","TARPON SPGS SEWAGE PL","FL","Pinellas","34689"
28.624200,-80.815800,"USH00088942","TITUSVILLE","FL","Brevard","32796"
31.533900,-84.148900,"USH00090140","ALBANY 3 SE","GA","Dougherty","31701"
30.822800,-84.617500,"USH00090586","BAINBRIDGE INTL PAPER","GA","Decatur","39819"
31.168100,-81.502200,"USH00091340","BRUNSWICK","GA","Glynn","31520"
31.190300,-84.203600,"USH00091500","CAMILLA 3SE","GA","Mitchell","31779"
33.597200,-83.843600,"USH00092318","COVINGTON","GA","Newton","30014"
34.529200,-83.990000,"USH00092475","DAHLONEGA","GA","Lumpkin","30533"
32.200300,-83.205800,"USH00092966","EASTMAN 1 W","GA","Dodge","31023"
34.300600,-83.860000,"USH00093621","GAINESVILLE","GA","Hall","30501"
31.988100,-81.952200,"USH00093754","GLENNVILLE 3NW","GA","Tattnall","30427"
33.284200,-83.468100,"USH00094170","HAWKINSVILLE","GA","Putnam","31024"
33.083100,-83.249700,"USH00095874","MILLEDGEVILLE","GA","Baldwin","31061"
32.870300,-81.967200,"USH00095882","MILLEN 4 N","GA","Jenkins","30442"
33.454400,-84.817800,"USH00096335","NEWNAN 5N","GA","Coweta","30275"
30.783600,-83.569200,"USH00097276","QUITMAN 2 NW","GA","Brooks","31643"
34.245300,-85.151400,"USH00097600","ROME","GA","Floyd","30161"
32.130000,-81.210000,"USH00097847","SAVANNAH INTL AP","GA","Chatham","31408"
32.687500,-84.519700,"USH00098535","TALBOTTON","GA","Talbot","31827"
31.446100,-83.476700,"USH00098703","TIFTON","GA","Tift","31794"
34.578600,-83.331900,"USH00098740","TOCCOA","GA","Stephens","30577"
33.402800,-82.622200,"USH00099141","WARRENTON","GA","Warren","30828"
33.726400,-82.705800,"USH00099157","WASHINGTON 2 ESE","GA","Wilkes","30673"
31.251400,-82.312800,"USH00099186","WAYCROSS 4 NE","GA","Ware","31501"
32.869400,-85.189200,"USH00099291","WEST POINT","AL","Chambers","36863"
42.953600,-112.825300,"USH00100010","ABERDEEN EXP STN","ID","Bingham","83210"
43.593600,-115.923600,"USH00100448","ARROWROCK DAM","ID","Ada","83716"
44.042500,-111.273900,"USH00100470","ASHTON 1N","ID","Fremont","83420"
42.335300,-111.385000,"USH00100803","BERN","ID","Bear Lake","83220"
44.573300,-116.675300,"USH00101408","CAMBRIDGE","ID","Adams","83643"
47.678900,-116.801700,"USH00101956","COEUR D'ALENE","ID","Kootenai","83815"
46.502200,-116.321700,"USH00102845","DWORSHAK FISH HATCHERY","ID","Clearwater","83520"
46.093100,-115.535600,"USH00103143","FENN RS","ID","Idaho","83552"
42.940300,-115.323100,"USH00103631","GLENNS FERRY","ID","Elmore","83633"
42.587200,-111.727500,"USH00103732","GRACE","ID","Caribou","83241"
42.597200,-114.137800,"USH00104140","HAZELTON","ID","Jerome","83335"
42.352800,-114.573900,"USH00104295","HOLLISTER","ID","Twin Falls","83301"
42.732500,-114.519200,"USH00104670","JEROME","ID","Jerome","83338"
47.531100,-116.126700,"USH00104831","KELLOGG","ID","Shoshone","83837"
43.684200,-114.360300,"USH00104845","KETCHUM RS","ID","Blaine","83353"
46.374700,-117.015600,"USH00105241","LEWISTON AP","WA","Whitman","99179"
42.123100,-111.313900,"USH00105275","LIFTON PUMPING STN","ID","Bear Lake","83233"
43.918100,-113.631700,"USH00105462","MACKAY LOST RIVER RS","ID","Custer","83251"
42.149200,-112.287200,"USH00105559","MALAD CITY","ID","Oneida","83252"
44.566400,-113.895300,"USH00105685","MAY 2SSE","ID","Custer","83235"
46.724400,-116.960800,"USH00106152","MOSCOW U OF I","ID","Latah","83843"
43.603900,-116.575300,"USH00106305","NAMPA SUGAR FACTORY","ID","Canyon","83687"
44.964700,-116.286400,"USH00106388","NEW MEADOWS RS","ID","Adams","83654"
42.234200,-113.898100,"USH00106542","OAKLEY","ID","Cassia","83346"
44.077200,-116.929700,"USH00106891","PAYETTE","ID","Payette","83619"
48.995800,-116.503100,"USH00107264","PORTHILL","ID","Boundary","83805"
48.351400,-116.835800,"USH00107386","PRIEST RIVER EXP STN","ID","Bonner","83856"
45.187500,-113.900800,"USH00108080","SALMON-KSRA","ID","Lemhi","83462"
48.292800,-116.557800,"USH00108137","SANDPOINT EXP STN","ID","Bonner","83852"
41.196100,-90.747800,"USH00110072","ALEDO","IL","Mercer","61231"
37.481400,-89.234400,"USH00110187","ANNA 2 NNE","IL","Union","62906"
41.780600,-88.309200,"USH00110338","AURORA","IL","Kane","60505"
39.288300,-89.870300,"USH00111280","CARLINVILLE","IL","Macoupin","62626"
39.476100,-88.165300,"USH00111436","CHARLESTON","IL","Coles","61920"
40.138900,-87.648300,"USH00112140","DANVILLE","IL","Vermilion","61832"
39.827500,-88.952500,"USH00112193","DECATUR WTP","IL","Macon","62523"
41.847200,-89.504700,"USH00112348","DIXON 1 NW","IL","Lee","61021"
37.987800,-89.193100,"USH00112483","DU QUOIN 4 SE","IL","Perry","62832"
41.174400,-90.035600,"USH00113335","GALVA","IL","Henry","61434"
37.740800,-88.524400,"USH00113879","HARRISBURG","IL","Saline","62965"
39.150000,-89.483300,"USH00114108","HILLSBORO","IL","Montgomery","62049"
40.474400,-87.656100,"USH00114198","HOOPESTON 1 NE","IL","Vermilion","60942"
39.734700,-90.197800,"USH00114442","JACKSONVILLE 2E","IL","Morgan","62650"
40.583900,-90.968600,"USH00114823","LA HARPE","IL","Hancock","61450"
40.151400,-89.338100,"USH00115079","LINCOLN","IL","Logan","62656"
42.292800,-88.646900,"USH00115326","MARENGO","IL","McHenry","60152"
38.084400,-88.542500,"USH00115515","MCLEANSBORO","IL","Hamilton","62859"
40.912500,-89.033900,"USH00115712","MINONK","IL","Woodford","61760"
40.924700,-90.639200,"USH00115768","MONMOUTH","IL","Warren","61462"
41.803900,-89.974400,"USH00115833","MORRISON","IL","Whiteside","61270"
42.098100,-89.984200,"USH00115901","MT CARROLL","IL","Carroll","61053"
38.348300,-88.853300,"USH00115943","MT VERNON 3 NE","IL","Jefferson","62864"
38.700300,-88.081900,"USH00116446","OLNEY 2S","IL","Richland","62450"
41.328300,-88.910600,"USH00116526","OTTAWA 5SW","IL","LaSalle","61350"
39.002800,-87.622500,"USH00116558","PALESTINE","IL","Crawford","62451"
39.372200,-89.024200,"USH00116579","PANA 3E","IL","Shelby","62571"
39.635600,-87.693300,"USH00116610","PARIS WTR WKS","IL","Edgar","61944"
39.805800,-90.823600,"USH00116738","PERRY 6 NW","IL","Pike","62362"
40.885300,-88.638900,"USH00116910","PONTIAC","IL","Livingston","61764"
40.115800,-90.560800,"USH00117551","RUSHVILLE","IL","Schuyler","62681"
38.116700,-89.716700,"USH00118147","SPARTA 1 W","IL","Randolph","62286"
40.083900,-88.240300,"USH00118740","URBANA","IL","Champaign","61820"
41.551900,-89.598900,"USH00118916","WALNUT","IL","Bureau","61376"
39.441100,-90.378900,"USH00119241","WHITE HALL 1 E","IL","Greene","62092"
39.438100,-88.598600,"USH00119354","WINDSOR","IL","Shelby","61957"
40.112200,-85.717500,"USH00120177","ANDERSON SEWAGE PLT","IN","Madison","46016"
41.639700,-84.989700,"USH00120200","ANGOLA","IN","Steuben","46703"
40.668300,-84.930500,"USH00120676","BERNE WWTP","IN","Adams","46711"
39.174200,-86.521400,"USH00120784","BLOOMINGTON IN UNIV","IN","Monroe","47406"
39.423900,-85.012800,"USH00121030","BROOKVILLE","IN","Franklin","47012"
39.866700,-85.183300,"USH00121229","CAMBRIDGE CITY 3 N","IN","Wayne","47327"
38.483300,-85.700000,"USH00121425","CHARLESTOWN 5 NNW","IN","Clark","47163"
39.197800,-85.921100,"USH00121747","COLUMBUS","IN","Bartholomew","47201"
40.002800,-86.801100,"USH00121873","CRAWFORDSVILLE 6 SE","IN","Montgomery","47968"
40.615000,-86.666100,"USH00122149","DELPHI 2 N","IN","Carroll","46923"
41.557500,-85.882500,"USH00123418","GOSHEN 3SW","IN","Elkhart","46526"
39.643900,-86.876700,"USH00123513","GREENCASTLE 1 W","IN","Putnam","46135"
39.785800,-85.761100,"USH00123527","GREENFIELD","IN","Hancock","46140"
41.542200,-87.288100,"USH00124008","HOBART 2 WNW","IN","Lake","46409"
40.855600,-85.498100,"USH00124181","HUNTINGTON","IN","Huntington","46750"
41.611700,-86.729700,"USH00124837","LAPORTE","IN","LaPorte","46350"
38.736900,-85.394200,"USH00125237","MADISON SEWAGE PLT","KY","Trimble","40045"
40.580000,-85.658600,"USH00125337","MARION 2 N","IN","Grant","46952"
37.928600,-87.895600,"USH00126001","MT VERNON","IN","Posey","47620"
38.889400,-86.551900,"USH00126580","OOLITIC PURDUE EX FRM","IN","Lawrence","47451"
38.555600,-86.485800,"USH00126705","PAOLI","IN","Orange","47454"
38.356700,-87.590600,"USH00127125","PRINCETON 1 W","IN","Gibson","47670"
40.935600,-87.156400,"USH00127298","RENSSELAER","IN","Jasper","47978"
41.065800,-86.209400,"USH00127482","ROCHESTER","IN","Fulton","46975"
39.759400,-87.226900,"USH00127522","ROCKVILLE","IN","Parke","47872"
39.604200,-85.452800,"USH00127646","RUSHVILLE","IN","Rush","46173"
38.611100,-86.088900,"USH00127755","SALEM","IN","Washington","47167"
38.688600,-85.785000,"USH00127875","SCOTTSBURG","IN","Scott","47170"
38.982200,-85.982200,"USH00127935","SEYMOUR 2 N","IN","Jackson","47274"
38.552800,-86.794400,"USH00128036","SHOALS 8 S","IN","Dubois","47527"
38.743600,-85.076100,"USH00129080","VEVAY","KY","Carroll","41045"
38.738600,-87.487800,"USH00129113","VINCENNES 5 NE","IN","Knox","47516"
38.648900,-87.198900,"USH00129253","WASHINGTON 1 W","IN","Daviess","47501"
41.194700,-87.057800,"USH00129511","WHEATFIELD","IN","Jasper","46392"
39.996100,-86.354200,"USH00129557","WHITESTOWN","IN","Boone","46075"
41.026700,-86.586700,"USH00129670","WINAMAC 2SSE","IN","Pulaski","46996"
41.065600,-92.786700,"USH00130112","ALBIA 3 NNE","IA","Monroe","52531"
43.068300,-94.305300,"USH00130133","ALGONA 3 W","IA","Kossuth","50511"
41.881400,-92.276400,"USH00130600","BELLE PLAINE","IA","Benton","52208"
43.077500,-92.671400,"USH00131402","CHARLES CITY","IA","Floyd","50616"
40.724400,-95.019200,"USH00131533","CLARINDA","IA","Page","51632"
41.794700,-90.263900,"USH00131635","CLINTON #1","IA","Clinton","52730"
43.430000,-94.821900,"USH00132724","ESTHERVILLE 2 N","IA","Emmet","51334"
41.021100,-91.955300,"USH00132789","FAIRFIELD","IA","Jefferson","52557"
42.850300,-91.815800,"USH00132864","FAYETTE","IA","Fayette","52142"
43.284400,-93.630600,"USH00132977","FOREST CITY 2 NNE","IA","Winnebago","50436"
42.583600,-94.200600,"USH00132999","FORT DODGE 5NNW","IA","Webster","50516"
41.365600,-93.648100,"USH00134063","INDIANOLA 2W","IA","Warren","50125"
42.518900,-93.253600,"USH00134142","IOWA FALLS","IA","Hardin","50126"
42.781700,-96.145800,"USH00134735","LE MARS","IA","Plymouth","51031"
41.638100,-95.788300,"USH00134894","LOGAN","IA","Harrison","51546"
40.705300,-94.242800,"USH00135769","MT AYR","IA","Ringgold","50854"
40.948600,-91.564700,"USH00135796","MT PLEASANT 1 SSW","IA","Henry","52641"
43.045300,-92.312200,"USH00135952","NEW HAMPTON","IA","Chickasaw","50659"
43.430000,-96.168600,"USH00137147","ROCK RAPIDS","IA","Lyon","51246"
42.396900,-94.629200,"USH00137161","ROCKWELL CITY","IA","Calhoun","50579"
42.634700,-95.169400,"USH00137979","STORM LAKE 2 E","IA","Buena Vista","50588"
42.035600,-92.580600,"USH00138296","TOLEDO 3N","IA","Tama","52342"
41.282800,-91.706700,"USH00138688","WASHINGTON","IA","Washington","52353"
37.155000,-98.028300,"USH00140264","ANTHONY","KS","Harper","67003"
37.194200,-99.763300,"USH00140365","ASHLAND","KS","Clark","67831"
39.575600,-95.110800,"USH00140405","ATCHISON","KS","Atchison","66002"
37.270600,-99.327200,"USH00141704","COLDWATER","KS","Comanche","67029"
37.176400,-94.839700,"USH00141740","COLUMBUS","KS","Cherokee","66725"
38.675800,-96.509700,"USH00141867","COUNCIL GROVE LAKE","KS","Morris","66846"
37.818300,-96.844400,"USH00142401","EL DORADO","KS","Butler","67042"
38.727800,-98.226700,"USH00142459","ELLSWORTH","KS","Ellsworth","67439"
37.842800,-94.708600,"USH00142835","FT SCOTT","KS","Bourbon","66701"
38.858600,-99.335800,"USH00143527","HAYS 1 S","KS","Ellis","67601"
39.670300,-95.522500,"USH00143810","HORTON","KS","Brown","66439"
37.236400,-95.700300,"USH00143954","INDEPENDENCE","KS","Montgomery","67301"
38.196400,-99.918100,"USH00144087","JETMORE 8NNW","KS","Hodgeman","67854"
37.941100,-101.249200,"USH00144464","LAKIN","KS","Kearny","67860"
38.181700,-99.099400,"USH00144530","LARNED","KS","Pawnee","67550"
38.958300,-95.251400,"USH00144559","LAWRENCE","KS","Douglas","66045"
39.325600,-94.918900,"USH00144588","LEAVENWORTH","KS","Leavenworth","66027"
37.022200,-100.929400,"USH00144695","LIBERAL","KS","Seward","67901"
39.197200,-96.581400,"USH00144972","MANHATTAN","KS","Riley","66506"
38.377200,-97.609700,"USH00145152","MCPHERSON","KS","McPherson","67443"
37.276700,-98.580000,"USH00145173","MEDICINE LODGE","KS","Barber","67104"
39.124700,-97.704700,"USH00145363","MINNEAPOLIS","KS","Ottawa","67467"
39.740800,-99.835600,"USH00145856","NORTON 9SSE","KS","Norton","67654"
39.818300,-100.533100,"USH00145906","OBERLIN","KS","Decatur","67749"
38.887500,-94.760300,"USH00145972","OLATHE 3E","KS","Johnson","66213"
38.613300,-95.280800,"USH00146128","OTTAWA","KS","Franklin","66067"
39.767500,-101.809700,"USH00147093","SAINT FRANCIS","KS","Cheyenne","67756"
38.481900,-100.918900,"USH00147271","SCOTT CITY","KS","Scott","67871"
37.131700,-96.186100,"USH00147305","SEDAN","KS","Chautauqua","67361"
39.777200,-98.778300,"USH00147542","SMITH CTR","KS","Smith","66967"
39.029700,-99.883100,"USH00148495","WAKEENEY","KS","Trego","67672"
38.453600,-82.613100,"USH00150254","ASHLAND","KY","Boyd","41101"
36.882500,-83.881900,"USH00150381","BARBOURVILLE","KY","Knox","40949"
37.573300,-84.290800,"USH00150619","BEREA COLLEGE","KY","Madison","40404"
36.964700,-86.423900,"USH00150909","BOWLING GREEN RGNL AP","KY","Warren","42102"
38.116700,-83.550000,"USH00152791","FARMERS 2 S","KY","Bath","40371"
38.202200,-84.882500,"USH00153028","FRANKFORT DOWNTOWN","KY","Franklin","40604"
37.259200,-85.502200,"USH00153430","GREENSBURG","KY","Green","42743"
37.755800,-87.645600,"USH00153762","HENDERSON 8 SSW","KY","Henderson","42406"
36.849200,-87.520600,"USH00153994","HOPKINSVILLE","KY","Christian","42240"
37.510800,-86.289200,"USH00154703","LEITCHFIELD 2 N","KY","Grayson","42754"
38.200000,-85.200000,"USH00157324","SHELBYVILLE 1 E","KY","Shelby","40065"
36.733300,-84.150000,"USH00158709","WILLIAMSBURG","KY","Whitley","40769"
38.658600,-84.610600,"USH00158714","WILLIAMSTOWN 3 W","KY","Grant","41097"
31.320600,-92.461100,"USH00160098","ALEXANDRIA","LA","Rapides","71301"
30.709400,-90.525000,"USH00160205","AMITE","LA","Tangipahoa","70422"
32.768900,-92.005600,"USH00160537","BASTROP","LA","Ouachita","71280"
30.537200,-91.146900,"USH00160549","BATON ROUGE METRO AP","LA","East Baton Rouge","70811"
30.959400,-92.178600,"USH00161287","BUNKIE","LA","Avoyelles","71322"
32.513300,-92.347800,"USH00161411","CALHOUN RSCH STN","LA","Ouachita","71225"
30.527200,-90.111400,"USH00162151","COVINGTON 4 NNW","LA","St. Tammany","70435"
30.071700,-91.027500,"USH00162534","DONALDSONVILLE 4 SW","LA","Assumption","70341"
29.823300,-91.544200,"USH00163313","FRANKLIN 3 NW","LA","St. Mary","70514"
30.419200,-92.043900,"USH00163800","GRAND COTEAU","LA","St. Landry","70541"
29.585800,-90.730300,"USH00164407","HOUMA","LA","Terrebonne","70363"
30.200300,-92.664200,"USH00164700","JENNINGS","LA","Jefferson Davis","70546"
30.205000,-91.987500,"USH00165026","LAFAYETTE FCWOS","LA","Lafayette","70501"
29.916700,-90.130300,"USH00166664","NEW ORLEANS AUDUBON","LA","Orleans","70115"
32.907800,-93.798100,"USH00167344","PLAIN DEALING 4 W","LA","Caddo","71043"
31.949700,-91.233600,"USH00168163","ST JOSEPH 3 N","LA","Tensas","71366"
29.775800,-90.780000,"USH00169013","THIBODAUX 3 ESE","LA","Lafourche","70301"
32.099400,-91.701900,"USH00169806","WINNSBORO 5 SSE","LA","Franklin","71295"
44.373900,-68.259200,"USH00170100","ACADIA NP","ME","Hancock","04609"
45.660300,-69.812000,"USH00170814","BRASSUA DAM","ME","Piscataquis","04441"
44.919700,-69.241700,"USH00171628","CORINNA","ME","Penobscot","04928"
44.906700,-66.991900,"USH00172426","EASTPORT","ME","Washington","04631"
44.688900,-70.156700,"USH00172765","FARMINGTON","ME","Franklin","04992"
44.220300,-69.788900,"USH00173046","GARDINER","ME","Kennebec","04345"
46.206100,-67.841700,"USH00173944","HOULTON 5N","ME","Aroostook","04730"
44.100000,-70.216700,"USH00174566","LEWISTON","ME","Androscoggin","04210"
45.650300,-68.705000,"USH00175304","MILLINOCKET","ME","Penobscot","04430"
43.649700,-70.300300,"USH00176905","PORTLAND JETPORT","ME","Cumberland","04102"
46.653900,-68.008900,"USH00176937","PRESQUE ISLE","ME","Aroostook","04769"
45.157200,-67.404400,"USH00179891","WOODLAND","ME","Washington","04694"
39.030300,-76.931400,"USH00180700","BELTSVILLE","MD","Prince George's","20740"
38.566700,-76.066700,"USH00181385","CAMBRIDGE WATER TRMT P","MD","Dorchester","21613"
39.216700,-76.051900,"USH00181750","CHESTERTOWN","MD","Kent","21620"
39.641900,-78.756100,"USH00182282","CUMBERLAND 2","MD","Allegany","21502"
38.883300,-75.800000,"USH00182523","DENTON 2 E","MD","Caroline","21629"
38.968900,-76.804200,"USH00183675","GLENN DALE BELL STN","MD","Prince George's","20720"
39.084700,-76.900300,"USH00185111","LAUREL 3 W","MD","Prince George's","20707"
39.281100,-76.610000,"USH00185718","MD SCI CTR BALTIMORE","MD","Baltimore","21231"
39.273900,-75.870000,"USH00185985","MILLINGTON 1 SE","MD","Kent","21651"
39.413300,-79.400000,"USH00186620","OAKLAND 1 SE","MD","Garrett","21550"
38.683300,-76.666700,"USH00186770","OWINGS FERRY LANDING","MD","Calvert","20736"
38.212200,-75.682200,"USH00187330","PRINCESS ANNE","MD","Somerset","21853"
38.714400,-76.189700,"USH00187806","ROYAL OAK 2 SSW","MD","Talbot","21662"
38.365000,-75.589200,"USH00188000","SALISBURY","MD","Wicomico","21802"
39.550000,-76.966700,"USH00189440","WESTMINSTER POL BRKS","MD","Carroll","21157"
39.333300,-76.866700,"USH00189750","WOODSTOCK","MD","Howard","21163"
42.386100,-72.537500,"USH00190120","AMHERST","MA","Hampshire","01003"
42.483300,-71.283300,"USH00190535","BEDFORD","MA","Middlesex","01730"
42.212200,-71.113600,"USH00190736","BLUE HILL","MA","Norfolk","02186"
42.145000,-73.417200,"USH00193213","GREAT BARRINGTON 5 SW","MA","Berkshire","01258"
42.699200,-71.165800,"USH00194105","LAWRENCE","MA","Essex","01840"
41.633300,-70.933300,"USH00195246","NEW BEDFORD","MA","Bristol","02740"
41.981900,-70.696100,"USH00196486","PLYMOUTH-KINGSTON","MA","Plymouth","02364"
42.050000,-70.183300,"USH00196681","PROVINCETOWN","MA","Barnstable","02657"
42.524200,-71.126400,"USH00196783","READING","MA","Middlesex","01867"
41.900300,-71.065800,"USH00198367","TAUNTON","MA","Bristol","02780"
42.160800,-71.245800,"USH00198757","WALPOLE 2","MA","Norfolk","02032"
42.133300,-71.433300,"USH00199316","WEST MEDWAY","MA","Norfolk","02053"
41.916400,-84.015800,"USH00200032","ADRIAN 2 NNE","MI","Lenawee","49221"
42.580000,-85.789200,"USH00200128","ALLEGAN 5NE","MI","Allegan","49328"
43.386400,-84.649200,"USH00200146","ALMA","MI","Gratiot","48801"
42.294700,-83.710800,"USH00200230","ANN ARBOR U OF","MI","Washtenaw","48109"
43.707200,-85.482200,"USH00200779","BIG RAPIDS WTR WKS","MI","Mecosta","49307"
46.519200,-87.985800,"USH00201439","CHAMPION VAN RIPER PK","MI","Marquette","49814"
46.341400,-86.924200,"USH00201486","CHATHAM EXP FARM 2","MI","Alger","49825"
45.652800,-84.472500,"USH00201492","CHEBOYGAN","MI","Cheboygan","49721"
41.962200,-84.992500,"USH00201675","COLDWATER ST SCHOOL","MI","Branch","49036"
44.283900,-83.503600,"USH00202423","EAST TAWAS","MI","Iosco","48730"
45.666700,-86.716700,"USH00202737","FAYETTE 4 SW","MI","Delta","49835"
43.674700,-86.423900,"USH00203632","HART 3 WSW","MI","Oceana","49436"
41.935300,-84.641100,"USH00203823","HILLSDALE","MI","Hillsdale","49242"
45.785800,-88.084200,"USH00204090","IRON MT KINGSFORD WWTP","MI","Dickinson","49802"
46.465600,-90.189200,"USH00204104","IRONWOOD","WI","Iron","54525"
42.283300,-85.600000,"USH00204244","KALAMAZOO STATE HOSP","MI","Kalamazoo","49007"
43.608900,-84.201100,"USH00205434","MIDLAND","MI","Midland","48667"
42.608300,-82.818300,"USH00205650","MT CLEMENS ANG BASE","MI","Macomb","48045"
43.585800,-84.769700,"USH00205662","MT PLEASANT UNIV","MI","Isabella","48858"
46.412200,-86.662500,"USH00205690","MUNISING","MI","Alger","49862"
46.313300,-85.510600,"USH00205816","NEWBERRY 3S","MI","Mackinac","49827"
43.016100,-84.180000,"USH00206300","OWOSSO WWTP","MI","Shiawassee","48867"
42.401100,-86.283300,"USH00207690","SOUTH HAVEN","MI","Van Buren","49090"
46.055600,-88.627500,"USH00207812","STAMBAUGH 2SSE","MI","Iron","49915"
47.299200,-96.516100,"USH00210018","ADA","MN","Norman","56510"
43.606400,-93.301900,"USH00210075","ALBERT LEA 3 SE","MN","Freeborn","56007"
48.331100,-96.825300,"USH00210252","ARGYLE","MN","Marshall","56713"
48.709400,-94.586900,"USH00210515","BAUDETTE","MN","Lake of the Woods","56623"
44.800000,-93.583300,"USH00211465","CHASKA","MN","Carver","55318"
46.704700,-92.525300,"USH00211630","CLOQUET","MN","Carlton","55720"
46.837200,-95.837200,"USH00212142","DETROIT LAKES 1 NNE","MN","Becker","56501"
47.458100,-92.530300,"USH00212645","EVELETH WWTP","MN","St. Louis","55741"
43.644700,-94.465600,"USH00212698","FAIRMONT","MN","Martin","56031"
44.669700,-93.170000,"USH00212737","FARMINGTON 3 NW","MN","Dakota","55024"
47.563600,-95.724400,"USH00212916","FOSSTON 1 E","MN","Polk","56542"
43.704700,-92.564400,"USH00213290","GRAND MEADOW","MN","Mower","55936"
47.243600,-93.497500,"USH00213303","GRAND RPDS FOREST LAB","MN","Itasca","55744"
47.225600,-95.191900,"USH00214106","ITASCA UNIV OF MINN","MN","Hubbard","56458"
47.246700,-94.222800,"USH00214652","LEECH LAKE","MN","Cass","56641"
47.630800,-93.652200,"USH00215175","MARCELL 5NE","MN","Itasca","56657"
45.121900,-95.926900,"USH00215400","MILAN 1 NW","MN","Chippewa","56262"
44.883100,-93.228900,"USH00215435","MINNEAPOLIS/ST PAUL AP","MN","Hennepin","55450"
44.936400,-95.753600,"USH00215563","MONTEVIDEO 1 SW","MN","Chippewa","56265"
45.877500,-93.314700,"USH00215615","MORA","MN","Kanabec","55051"
45.590300,-95.874700,"USH00215638","MORRIS WC EXP STN","MN","Stevens","56267"
44.300600,-94.489700,"USH00215887","NEW ULM 2 SE","MN","Brown","56073"
44.762800,-94.929700,"USH00216152","OLIVIA 3E","MN","Renville","55310"
46.900600,-95.067800,"USH00216360","PARK RAPIDS 2 S","MN","Hubbard","56470"
46.669400,-94.108900,"USH00216547","PINE RIVER DAM","MN","Crow Wing","56442"
44.013900,-96.325800,"USH00216565","PIPESTONE","MN","Pipestone","56164"
48.848600,-95.767500,"USH00217087","ROSEAU","MN","Roseau","56751"
44.322200,-93.965600,"USH00217405","ST PETER","MN","Le Sueur","56050"
46.795300,-93.321100,"USH00217460","SANDY LAKE DAM LIBBY","MN","Aitkin","55752"
47.025800,-91.665300,"USH00218419","TWO HARBORS","MN","Lake","55609"
47.074400,-94.570000,"USH00218618","WALKER AH GWAH CHING","MN","Cass","56484"
43.769200,-94.187200,"USH00219046","WINNEBAGO","MN","Faribault","56098"
44.299200,-92.666100,"USH00219249","ZUMBROTA","MN","Goodhue","55992"
33.830000,-88.521400,"USH00220021","ABERDEEN","MS","Monroe","39730"
34.306100,-89.980600,"USH00220488","BATESVILLE 2 SW","MS","Panola","38606"
34.662800,-88.579700,"USH00220955","BOONEVILLE","MS","Prentiss","38829"
31.544700,-90.458100,"USH00221094","BROOKHAVEN CITY","MS","Lincoln","39601"
32.671400,-90.036100,"USH00221389","CANTON 4N","MS","Madison","39046"
34.186400,-90.557200,"USH00221707","CLARKSDALE","MS","Coahoma","38614"
31.250300,-89.836100,"USH00221865","COLUMBIA","MS","Marion","39429"
33.467800,-88.384700,"USH00221880","COLUMBUS","MS","Lowndes","39702"
34.879200,-88.617800,"USH00221962","CORINTH 7 SW","MS","Alcorn","38834"
31.946100,-90.377500,"USH00222094","CRYSTAL SPGS EXP STN","MS","Copiah","39059"
32.360000,-89.420800,"USH00223107","FOREST","MS","Scott","39074"
33.359200,-91.060000,"USH00223605","GREENVILLE","MS","Washington","38701"
31.254700,-89.339200,"USH00223887","HATTIESBURG 5SW","MS","Forrest","39401"
34.816100,-89.985300,"USH00223975","HERNANDO","MS","DeSoto","38632"
34.821900,-89.434700,"USH00224173","HOLLY SPRINGS 4 N","MS","Marshall","38635"
33.058300,-89.579700,"USH00224776","KOSCIUSKO","MS","Attala","39090"
31.675600,-89.123600,"USH00224939","LAUREL","MS","Jones","39440"
33.135300,-89.071100,"USH00225247","LOUISVILLE","MS","Winston","39339"
31.551900,-90.105800,"USH00225987","MONTICELLO","MS","Lawrence","39654"
33.451900,-90.509400,"USH00226009","MOORHEAD","MS","Sunflower","38761"
31.588900,-91.340800,"USH00226177","NATCHEZ","MS","Adams","39120"
30.396400,-88.478100,"USH00226718","PASCAGOULA 3 NE","MS","Jackson","39581"
34.138100,-88.998300,"USH00227111","PONTOTOC EXP STN","MS","Pontotoc","38863"
30.840800,-89.545300,"USH00227128","POPLARVILLE EXP STN","MS","Pearl River","39470"
31.985000,-90.971900,"USH00227132","PORT GIBSON 1 NE","MS","Claiborne","39150"
33.469200,-88.782200,"USH00228374","STATE UNIV","MS","Oktibbeha","39762"
34.380300,-89.535800,"USH00229079","UNIVERSITY","MS","Lafayette","38677"
34.158300,-89.631100,"USH00229400","WATER VALLEY","MS","Yalobusha","38965"
30.294700,-89.383100,"USH00229426","WAVELAND","MS","Hancock","39576"
31.677200,-88.670800,"USH00229439","WAYNESBORO 2 W","MS","Wayne","39367"
31.092800,-91.232800,"USH00229793","WOODVILLE 4 ESE","MS","Wilkinson","39631"
32.902800,-90.381700,"USH00229860","YAZOO CITY 5 NNE","MS","Yazoo","39194"
38.186900,-94.028100,"USH00230204","APPLETON CITY","MO","St. Clair","64724"
39.344700,-91.171100,"USH00230856","BOWLING GREEN 1 E","MO","Pike","63334"
39.424700,-93.133100,"USH00231037","BRUNSWICK","MO","Chariton","65236"
36.168600,-89.664200,"USH00231364","CARUTHERSVILLE","MO","Pemiscot","63830"
38.395000,-93.771100,"USH00231711","CLINTON","MO","Henry","64735"
40.239400,-94.683300,"USH00231822","CONCEPTION","MO","Nodaway","64433"
36.620600,-90.812500,"USH00232289","DONIPHAN","MO","Ripley","63935"
37.792200,-90.410300,"USH00232809","FARMINGTON","MO","St. Francois","63640"
38.585000,-92.182500,"USH00234271","JEFFERSON CITY WTP","MO","Callaway","65043"
37.499400,-94.269700,"USH00234705","LAMAR","MO","Barton","64759"
37.685000,-92.693600,"USH00234825","LEBANON 2W","MO","Laclede","65536"
38.880300,-94.335800,"USH00234850","LEES SUMMIT REED WR","MO","Jackson","64063"
39.182800,-93.855000,"USH00234904","LEXINGTON 3E","MO","Lafayette","64067"
37.390800,-93.948900,"USH00235027","LOCKWOOD","MO","Dade","65682"
37.303600,-89.966400,"USH00235253","MARBLE HILL","MO","Bollinger","63764"
39.175600,-91.886100,"USH00235541","MEXICO","MO","Audrain","65265"
39.419400,-92.436900,"USH00235671","MOBERLY","MO","Randolph","65270"
37.152800,-92.263600,"USH00235834","MTN GROVE 2 N","MO","Wright","65711"
36.863900,-94.360000,"USH00235976","NEOSHO","MO","Newton","64850"
37.957200,-91.775800,"USH00237263","ROLLA UNI OF MISSOURI","MO","Phelps","65401"
40.247200,-93.715800,"USH00237963","SPICKARD 7 W","MO","Grundy","64679"
39.971400,-91.887200,"USH00238051","STEFFENVILLE","MO","Shelby","63434"
38.966400,-93.419400,"USH00238223","SWEET SPRINGS","MO","Saline","65351"
38.258100,-93.398900,"USH00238466","TRUMAN DAM & RSVR","MO","Benton","65355"
40.475000,-93.003100,"USH00238523","UNIONVILLE","MO","Putnam","63565"
38.835000,-91.138600,"USH00238725","WARRENTON 1 N","MO","Warren","63383"
46.131400,-112.956900,"USH00240199","ANACONDA","MT","Deer Lodge","59756"
47.493100,-112.396400,"USH00240364","AUGUSTA","MT","Lewis and Clark","59410"
45.832800,-109.950300,"USH00240780","BIG TIMBER","MT","Sweet Grass","59011"
45.662200,-111.045300,"USH00241044","BOZEMAN MONTANA ST U","MT","Gallatin","59718"
47.219400,-111.710000,"USH00241552","CASCADE 5 S","MT","Cascade","59421"
48.588300,-109.225600,"USH00241722","CHINOOK","MT","Blaine","59523"
47.820600,-112.191900,"USH00241737","CHOTEAU","MT","Teton","59422"
48.603300,-112.375300,"USH00242173","CUT BANK AP","MT","Glacier","59427"
45.212800,-112.644700,"USH00242409","DILLON WMCE","MT","Beaverhead","59725"
45.890300,-104.546100,"USH00242689","EKALAKA","MT","Carter","59324"
45.339400,-111.711100,"USH00242793","ENNIS","MT","Madison","59729"
46.851100,-108.313300,"USH00243013","FLATWILLOW 4 ENE","MT","Petroleum","59087"
48.777800,-107.453600,"USH00243089","FORKS 4 NNE","MT","Phillips","59544"
48.498300,-109.797200,"USH00243110","FT ASSINNIBOINE","MT","Hill","59501"
48.778300,-114.899700,"USH00243139","FORTINE 1 N","MT","Lincoln","59918"
48.213900,-106.621400,"USH00243558","GLASGOW INTL AP","MT","Valley","59230"
47.106400,-104.718300,"USH00243581","GLENDIVE","MT","Dawson","59330"
47.473300,-111.382200,"USH00243751","GREAT FALLS AP","MT","Cascade","59401"
46.255300,-114.164200,"USH00243885","HAMILTON","MT","Ravalli","59840"
44.866700,-111.339200,"USH00244038","HEBGEN DAM","MT","Gallatin","59758"
46.605600,-111.963600,"USH00244055","HELENA AP ASOS","MT","Lewis and Clark","59636"
45.922800,-108.244400,"USH00244345","HUNTLEY EXP STN","MT","Yellowstone","59037"
45.935300,-107.137500,"USH00244364","HYSHAM 25 SSE","MT","Treasure","59010"
47.314400,-106.910300,"USH00244522","JORDAN","MT","Garfield","59337"
48.304200,-114.263600,"USH00244558","KALISPELL GLACIER AP","MT","Flathead","59901"
48.403600,-115.539200,"USH00245015","LIBBY 1 NE RS","MT","Lincoln","59923"
45.483600,-110.568900,"USH00245080","LIVINGSTON 12 S","MT","Park","59047"
48.393900,-107.728600,"USH00245338","MALTA 7 E","MT","Phillips","59261"
48.482800,-104.451400,"USH00245572","MEDICINE LAKE 3 SE","MT","Sheridan","59242"
46.761400,-104.961900,"USH00245668","MILDRED 5 N","MT","Prairie","59326"
46.426700,-105.882500,"USH00245690","MILES CITY AP","MT","Custer","59301"
47.057500,-109.951400,"USH00245761","MOCCASIN EXP STN","MT","Judith Basin","59462"
45.485600,-111.632500,"USH00246157","NORRIS MADISON PH","MT","Madison","59745"
46.315800,-113.300000,"USH00246472","PHILIPSBURG RS","MT","Granite","59858"
46.417800,-104.516400,"USH00246601","PLEVNA","MT","Fallon","59344"
45.179700,-109.249700,"USH00246918","RED LODGE","MT","Carbon","59007"
47.315000,-114.098300,"USH00247286","SAINT IGNATIUS","MT","Lake","59863"
47.303300,-115.090800,"USH00247318","SAINT REGIS 1 NE","MT","Mineral","59866"
47.453600,-104.337800,"USH00247382","SAVAGE","MT","Richland","59262"
48.308900,-112.251100,"USH00248501","VALIER","MT","Pondera","59486"
47.880000,-105.368600,"USH00248569","VIDA 6 NE","MT","McCone","59274"
45.292500,-111.948100,"USH00248597","VIRGINIA CITY","MT","Madison","59755"
44.650000,-111.100000,"USH00248857","WEST YELLOWSTONE","MT","Gallatin","59758"
46.543600,-110.900000,"USH00248930","WHITE SULPHUR SPRNGS 2","MT","Meagher","59645"
41.686700,-98.003600,"USH00250070","ALBION","NE","Boone","68620"
42.110300,-102.896700,"USH00250130","ALLIANCE 1WNW","NE","Box Butte","69301"
41.040600,-96.377500,"USH00250375","ASHLAND NO 2","NE","Saunders","68003"
42.513600,-99.030300,"USH00250420","ATKINSON 3SW","NE","Holt","68713"
40.370300,-95.746700,"USH00250435","AUBURN 5 ESE","NE","Nemaha","68321"
40.299400,-96.750000,"USH00250622","BEATRICE 1N","NE","Gage","68310"
40.130600,-99.827800,"USH00250640","BEAVER CITY","NE","Furnas","68926"
41.667500,-103.104200,"USH00251145","BRIDGEPORT","NE","Morrill","69336"
41.408300,-99.675000,"USH00251200","BROKEN BOW 2 W","NE","Custer","68822"
40.619400,-96.946900,"USH00252020","CRETE","NE","Saline","68333"
40.674200,-100.493600,"USH00252100","CURTIS 3NNE","NE","Frontier","69025"
41.249200,-97.132800,"USH00252205","DAVID CITY","NE","Butler","68632"
40.073900,-97.166900,"USH00252820","FAIRBURY 5S","NE","Jefferson","68350"
40.642200,-97.592800,"USH00252840","FAIRMONT","NE","Fillmore","68354"
40.100000,-98.966700,"USH00253035","FRANKLIN","NE","Franklin","68939"
40.531400,-97.596400,"USH00253175","GENEVA","NE","Fillmore","68361"
41.451400,-97.764400,"USH00253185","GENOA 2 W","NE","Nance","68640"
40.940000,-100.152200,"USH00253365","GOTHENBURG","NE","Dawson","69138"
42.685800,-103.884200,"USH00253615","HARRISON","NE","Sioux","69346"
42.616700,-97.260800,"USH00253630","HARTINGTON","NE","Cedar","68739"
40.647500,-98.383300,"USH00253660","HASTINGS 4N","NE","Adams","68901"
42.511900,-102.694400,"USH00253715","HAY SPRINGS 12 S","NE","Sheridan","69347"
40.175000,-97.590300,"USH00253735","HEBRON","NE","Thayer","68370"
40.451700,-99.380300,"USH00253910","HOLDREGE","NE","Phelps","68949"
40.520800,-101.655000,"USH00254110","IMPERIAL","NE","Chase","69033"
41.245300,-103.634400,"USH00254440","KIMBALL 2NE","NE","Kimball","69145"
41.148900,-102.636100,"USH00254900","LODGEPOLE","NE","Cheyenne","69149"
41.280800,-98.968100,"USH00254985","LOUP CITY","NE","Sherman","68853"
41.829200,-97.450000,"USH00255080","MADISON","NE","Madison","68748"
40.215600,-100.620300,"USH00255310","MC COOK","NE","Red Willow","69001"
42.919400,-101.708900,"USH00255470","MERRIMAN","NE","Cherry","69218"
40.515600,-98.951400,"USH00255565","MINDEN","NE","Kearney","68959"
41.493300,-98.774700,"USH00256040","NORTH LOUP","NE","Valley","68859"
42.067800,-97.967500,"USH00256135","OAKDALE","NE","Antelope","68761"
40.121700,-96.155800,"USH00256570","PAWNEE CITY","NE","Pawnee","68420"
42.065000,-100.247200,"USH00256970","PURDUM","NE","Blaine","69157"
40.097800,-98.519700,"USH00257070","RED CLOUD","NE","Webster","68970"
41.268600,-98.469700,"USH00257515","SAINT PAUL 4N","NE","Howard","68873"
40.900000,-97.090800,"USH00257715","SEWARD","NE","Seward","68434"
41.458100,-100.598600,"USH00258133","STAPLETON 5W","NE","Logan","69163"
40.682500,-96.188600,"USH00258395","SYRACUSE","NE","Otoe","68446"
40.354400,-96.193900,"USH00258465","TECUMSEH 1S","NE","Johnson","68450"
41.786100,-96.226400,"USH00258480","TEKAMAH","NE","Burt","68061"
42.266700,-96.861700,"USH00258915","WAKEFIELD","NE","Dixon","68784"
40.863900,-96.141400,"USH00259090","WEEPING WATER","NE","Cass","68463"
40.867800,-97.592200,"USH00259510","YORK","NE","York","68467"
39.493100,-117.067500,"USH00260507","AUSTIN #2","NV","Lander","89310"
40.611700,-116.891700,"USH00260691","BATTLE MOUNTAIN 4SE","NV","Lander","89820"
35.980000,-114.846400,"USH00261071","BOULDER CITY","NV","Clark","89005"
40.828900,-115.788600,"USH00262573","ELKO RGNL AP","NV","Elko","89815"
39.457200,-118.781100,"USH00262780","FALLON EXP STN","NV","Lyon","89408"
40.956700,-117.492200,"USH00263245","GOLCONDA","NV","Humboldt","89414"
40.190600,-118.476700,"USH00264698","LOVELOCK","NV","Pershing","89419"
39.413600,-114.773300,"USH00264950","MCGILL","NV","White Pine","89318"
38.384400,-118.105600,"USH00265168","MINA","NV","Mineral","89420"
39.483900,-119.771100,"USH00266779","RENO AP","NV","Washoe","89502"
35.466100,-114.921700,"USH00267369","SEARCHLIGHT","NV","Clark","89046"
41.100600,-114.973600,"USH00268988","WELLS","NV","Elko","89835"
40.901700,-117.808100,"USH00269171","WINNEMUCCA AP","NV","Humboldt","89446"
44.306100,-71.657500,"USH00270706","BETHLEHEM 2","NH","Grafton","03574"
43.150000,-70.950000,"USH00272174","DURHAM","NH","Strafford","03823"
45.087500,-71.287200,"USH00272999","FIRST CONNECTICUT LAKE","NH","Coos","03592"
43.703100,-72.284700,"USH00273850","HANOVER","NH","Grafton","03784"
42.938900,-72.324400,"USH00274399","KEENE","NH","Cheshire","03431"
39.379200,-74.424200,"USH00280325","ATLANTIC CITY","NJ","Atlantic","08401"
40.829200,-75.083600,"USH00280734","BELVIDERE BRG","NJ","Warren","07823"
40.900000,-74.400000,"USH00280907","BOONTON 1 SE","NJ","Morris","07034"
41.034700,-74.423300,"USH00281582","CHARLOTTEBURG RSVR","NJ","Passaic","07435"
40.563100,-74.883100,"USH00283029","FLEMINGTON 5 NNW","NJ","Hunterdon","08822"
40.265000,-74.564200,"USH00283951","HIGHTSTOWN 2 W","NJ","Mercer","08561"
39.814400,-74.788300,"USH00284229","INDIAN MILLS 2 W","NJ","Burlington","08055"
40.279700,-74.004700,"USH00284987","LONG BRANCH OAKHURST","NJ","Monmouth","07764"
39.951100,-74.969700,"USH00285728","MOORESTOWN","NJ","Burlington","08052"
40.471900,-74.436400,"USH00286055","NEW BRUNSWICK 3 SE","NJ","Middlesex","08901"
40.603600,-74.402500,"USH00287079","PLAINFIELD","NJ","Union","07060"
39.950000,-74.216700,"USH00288816","TOMS RIVER","NJ","Ocean","08722"
36.835000,-108.000600,"USH00290692","AZTEC RUINS NM","NM","San Juan","87415"
35.529700,-104.093600,"USH00290858","BELL RANCH","NM","San Miguel","87746"
32.347800,-104.222500,"USH00291469","CARLSBAD","NM","Eddy","88220"
33.630800,-105.896400,"USH00291515","CARRIZOZO 1SW","NM","Lincoln","88341"
36.917800,-106.578100,"USH00291664","CHAMA","NM","Rio Arriba","87520"
36.466100,-104.945600,"USH00291813","CIMARRON 4 SW","NM","Colfax","87714"
36.448600,-103.153900,"USH00291887","CLAYTON MUNI ARPK AP","NM","Union","88415"
36.935800,-107.000000,"USH00292608","DULCE","NM","Rio Arriba","87528"
33.146100,-107.184400,"USH00292848","ELEPHANT BUTTE DAM","NM","Sierra","87901"
32.793900,-108.151700,"USH00293265","FT BAYARD","NM","Grant","88022"
34.466700,-104.231900,"USH00293294","FT SUMNER","NM","De Baca","88119"
32.226100,-108.086700,"USH00293368","GAGE","NM","Luna","88030"
35.778300,-106.687200,"USH00294369","JEMEZ SPRINGS","NM","Sandoval","87025"
32.616900,-106.741100,"USH00294426","JORNADA EXP RANGE","NM","Doña Ana","88012"
35.567800,-105.213100,"USH00294862","LAS VEGAS WWTP","NM","San Miguel","87701"
34.767500,-106.761100,"USH00295150","LOS LUNAS 3 SSW","NM","Valencia","87042"
33.822500,-108.941700,"USH00295273","LUNA RS","NM","Catron","87824"
32.954700,-105.824200,"USH00295960","MTN PARK","NM","Otero","88337"
34.520800,-106.260600,"USH00295965","MOUNTAINAIR","NM","Torrance","87036"
32.378900,-106.091100,"USH00296435","OROGRANDE","NM","Otero","88342"
36.705800,-105.403600,"USH00297323","RED RIVER","NM","Taos","87558"
33.307500,-104.508300,"USH00297610","ROSWELL IND AP","NM","Chaves","88230"
35.108600,-103.328300,"USH00297867","SAN JON","NM","Quay","88434"
34.935800,-104.680500,"USH00298107","SANTA ROSA","NM","Guadalupe","88435"
34.082800,-106.883100,"USH00298387","SOCORRO","NM","Socorro","87801"
36.362800,-104.585000,"USH00298501","SPRINGER","NM","Colfax","87747"
32.282200,-106.759700,"USH00298535","STATE UNIV","NM","Doña Ana","88001"
35.200600,-103.686700,"USH00299156","TUCUMCARI 4 NE","NM","Quay","88401"
33.071900,-106.041700,"USH00299165","TULAROSA","NM","Otero","88352"
42.101400,-77.234400,"USH00300023","ADDISON","NY","Steuben","14801"
42.743100,-73.809200,"USH00300042","ALBANY INTL AP","NY","Albany","12110"
42.261400,-77.785000,"USH00300085","ALFRED","NY","Allegany","14802"
42.100300,-78.750000,"USH00300093","ALLEGANY SP","NY","Cattaraugus","14779"
42.301700,-77.988900,"USH00300183","ANGELICA","NY","Allegany","14813"
42.932800,-76.544700,"USH00300321","AUBURN","NY","Cayuga","13021"
43.030300,-78.169200,"USH00300443","BATAVIA","NY","Genesee","14020"
42.206700,-75.980000,"USH00300687","BINGHAMTON GREATER AP","NY","Broome","13790"
40.946400,-72.306700,"USH00300889","BRIDGEHAMPTON","NY","Suffolk","11932"
43.200000,-77.933300,"USH00300937","BROCKPORT","NY","Monroe","14420"
42.940800,-78.735800,"USH00301012","BUFFALO NIAGARA INTL","NY","Erie","14225"
44.577200,-75.109700,"USH00301185","CANTON 4 SE","NY","St. Lawrence","13617"
44.878600,-73.395300,"USH00301401","CHAZY","VT","Grand Isle","05463"
42.716700,-74.926700,"USH00301752","COOPERSTOWN","NY","Otsego","13326"
42.600000,-76.183300,"USH00301799","CORTLAND","NY","Cortland","13045"
44.719200,-73.720600,"USH00301966","DANNEMORA","NY","Clinton","12929"
42.565600,-77.717500,"USH00301974","DANSVILLE","NY","Livingston","14437"
42.062800,-75.426400,"USH00302060","DEPOSIT","NY","Broome","13754"
41.007200,-73.834400,"USH00302129","DOBBS FERRY ARDSLEY","NY","Westchester","10502"
42.099700,-76.835800,"USH00302610","ELMIRA","NY","Chemung","14905"
42.449700,-79.312000,"USH00303033","FREDONIA","NY","Chautauqua","14048"
42.876700,-77.030800,"USH00303184","GENEVA RSCH FARM","NY","Ontario","14456"
41.516700,-73.933300,"USH00303259","GLENHAM","NY","Dutchess","12527"
43.049200,-74.359200,"USH00303319","GLOVERSVILLE","NY","Fulton","12095"
42.774700,-77.608300,"USH00303773","HEMLOCK","NY","Ontario","14466"
43.755000,-74.269200,"USH00304102","INDIAN LAKE 2SW","NY","Hamilton","12864"
42.448900,-76.448900,"USH00304174","ITHACA CORNELL UNIV","NY","Tompkins","14853"
44.244400,-73.984700,"USH00304555","LAKE PLACID 2 S","NY","Essex","12946"
44.758300,-74.669200,"USH00304647","LAWRENCEVILLE 3 SW","NY","St. Lawrence","12967"
43.060300,-74.868600,"USH00304791","LITTLE FALLS CITY RSVR","NY","Herkimer","13365"
43.033300,-74.866700,"USH00304796","LITTLE FALLS MILL ST","NY","Herkimer","13407"
43.139200,-78.681400,"USH00304844","LOCKPORT 3 S","NY","Niagara","14094"
43.797500,-75.481700,"USH00304912","LOWVILLE","NY","Lewis","13367"
44.841900,-74.308100,"USH00304996","MALONE","NY","Franklin","12966"
42.469400,-75.010600,"USH00305113","MARYLAND 9 SW","NY","Otsego","13820"
41.768100,-74.155000,"USH00305426","MOHONK LAKE","NY","Ulster","12440"
42.841700,-75.726400,"USH00305512","MORRISVILLE 6 SW","NY","Madison","13061"
40.778900,-73.969200,"USH00305801","NY CITY CNTRL PARK","NY","New York","10023"
42.511700,-75.519700,"USH00306085","NORWICH","NY","Chenango","13815"
44.728100,-75.444200,"USH00306164","OGDENSBURG 4 NE","NY","St. Lawrence","13669"
43.462200,-76.493300,"USH00306314","OSWEGO EAST","NY","Oswego","13126"
41.380000,-74.684700,"USH00306774","PORT JERVIS","PA","Pike","18336"
41.599700,-73.910000,"USH00306820","POUGHKEEPSIE","NY","Dutchess","12590"
43.116700,-77.676700,"USH00307167","ROCHESTER INTL AP","NY","Monroe","14619"
43.033100,-73.816700,"USH00307484","SARATOGA SPRINGS 4 SW","NY","Saratoga","12020"
40.958600,-73.104700,"USH00307633","SETAUKET STRONG","NY","Suffolk","11733"
42.692500,-73.832500,"USH00308248","STILLWATER RSVR","NY","Albany","12222"
43.109200,-76.103300,"USH00308383","SYRACUSE WSO AP","NY","Onondaga","13211"
42.750000,-73.683100,"USH00308600","TROY L&D","NY","Albany","12183"
44.230800,-74.438300,"USH00308631","TUPPER LAKE SUNMOUNT","NY","Franklin","12986"
43.145000,-75.383900,"USH00308737","UTICA FAA AP","NY","Oneida","13424"
41.551400,-74.162800,"USH00308906","WALDEN 1 ESE","NY","Orange","12586"
42.741100,-78.510000,"USH00308910","WALES","NY","Erie","14169"
44.148100,-74.900300,"USH00308944","WANAKENA RNGR SCHOOL","NY","St. Lawrence","13695"
43.976100,-75.875300,"USH00309000","WATERTOWN","NY","Jefferson","13601"
41.390600,-73.960800,"USH00309292","WEST POINT","NY","Orange","10996"
41.266400,-73.797500,"USH00309670","YORKTOWN HEIGHTS 1 W","NY","Westchester","10598"
35.399200,-80.199400,"USH00310090","ALBEMARLE","NC","Stanly","28001"
35.232500,-75.621900,"USH00311458","CAPE HATTERAS AP","NC","Dare","27943"
35.908600,-79.079400,"USH00311677","CHAPEL HILL 2 W","NC","Orange","27510"
36.016400,-76.551700,"USH00312635","EDENTON","NC","Chowan","27932"
36.309700,-76.205000,"USH00312719","ELIZABETH CITY","NC","Camden","27921"
35.058300,-78.858300,"USH00313017","FAYETTEVILLE PWC","NC","Cumberland","28301"
35.344400,-77.964700,"USH00313510","GOLDSBORO 4 SE","NC","Wayne","27531"
36.348100,-78.411900,"USH00313969","HENDERSON 2 NNW","NC","Vance","27536"
35.329700,-82.449200,"USH00313976","HENDERSONVILLE 1 NE","NC","Henderson","28791"
35.053600,-83.189200,"USH00314055","HIGHLANDS","NC","Macon","28741"
35.196700,-77.543300,"USH00314684","KINSTON 7 SE","NC","Lenoir","28501"
35.915000,-81.537800,"USH00314938","LENOIR","NC","Caldwell","28645"
36.102800,-78.303900,"USH00315123","LOUISBURG","NC","Franklin","27549"
34.626900,-79.025000,"USH00315177","LUMBERTON","NC","Robeson","28360"
35.663100,-82.029200,"USH00315340","MARION 2 NW","NC","McDowell","28752"
35.803600,-82.665800,"USH00315356","MARSHALL","NC","Madison","28753"
34.979700,-80.523300,"USH00315771","MONROE 2 SE","NC","Union","28174"
34.733600,-76.735800,"USH00315830","MOREHEAD CITY 2 WNW","NC","Carteret","28557"
35.730800,-81.671700,"USH00315838","MORGANTON","NC","Burke","28619"
36.499200,-80.650800,"USH00315890","MT AIRY 2 W","NC","Surry","27030"
36.382500,-79.694700,"USH00317202","REIDSVILLE 2 NW","NC","Rockingham","27320"
35.683600,-80.482200,"USH00317615","SALISBURY","NC","Rowan","28144"
35.516400,-78.345800,"USH00317994","SMITHFIELD","NC","Johnston","27577"
33.994700,-78.007800,"USH00318113","SOUTHPORT 5 N","NC","Brunswick","28461"
35.810000,-80.880800,"USH00318292","STATESVILLE 2 NNE","NC","Iredell","28625"
35.884700,-77.538600,"USH00318500","TARBORO 1 S","NC","Edgecombe","27886"
36.391900,-81.303900,"USH00318694","TRANSOU","NC","Alleghany","28644"
35.486700,-82.968300,"USH00319147","WAYNESVILLE 1 E","NC","Haywood","28786"
35.693900,-77.945600,"USH00319476","WILSON 3 SW","NC","Wilson","27893"
48.821400,-100.444700,"USH00320941","BOTTINEAU","ND","Bottineau","58318"
46.876900,-97.232800,"USH00321408","CASSELTON AGRONOMY FM","ND","Cass","58079"
48.907500,-103.294400,"USH00321871","CROSBY","ND","Divide","58730"
46.891100,-102.811100,"USH00322188","DICKINSON EXP STN","ND","Stark","58601"
47.346700,-102.586900,"USH00322365","DUNN CENTER 1E","ND","Dunn","58626"
46.050000,-100.666700,"USH00323207","FT YATES 4 SW","ND","Sioux","58538"
46.158100,-98.400000,"USH00323287","FULLERTON 1 ESE","ND","Dickey","58441"
48.418100,-97.424700,"USH00323594","GRAFTON","ND","Walsh","58237"
47.921700,-97.098100,"USH00323621","GRAND FORKS UNIV NWS","ND","Grand Forks","58202"
45.992500,-102.644200,"USH00324178","HETTINGER","ND","Adams","58639"
47.438900,-97.066400,"USH00324203","HILLSBORO 3 N","ND","Traill","58045"
46.884400,-98.685000,"USH00324418","JAMESTOWN STATE HOSP","ND","Stutsman","58402"
48.762200,-98.344700,"USH00324958","LANGDON EXP FARM","ND","Cavalier","58249"
46.452200,-97.682200,"USH00325220","LISBON","ND","Ransom","58054"
46.812800,-100.909700,"USH00325479","MANDAN EXP STN","ND","Morton","58554"
46.670600,-100.229400,"USH00326015","MOFFIT 3 SE","ND","Burleigh","58560"
46.371900,-102.316400,"USH00326155","MOTT","ND","Hettinger","58646"
46.506700,-99.769200,"USH00326255","NAPOLEON","ND","Logan","58561"
46.541400,-102.869200,"USH00326315","NEW ENGLAND","ND","Hettinger","58647"
48.971100,-97.241700,"USH00326947","PEMBINA","ND","Pembina","58271"
46.888600,-102.319200,"USH00327530","RICHARDTON ABBEY","ND","Stark","58652"
48.370600,-100.390800,"USH00328792","TOWNER 2 NE","ND","McHenry","58788"
46.323300,-96.610800,"USH00329100","WAHPETON 3 N","ND","Richland","58076"
48.606100,-100.291100,"USH00329445","WILLOW CITY","ND","Bottineau","58384"
40.812800,-82.969400,"USH00331072","BUCYRUS","OH","Crawford","44820"
40.268600,-80.998100,"USH00331152","CADIZ","OH","Harrison","43907"
41.051700,-81.936100,"USH00331541","CHIPPEWA LAKE","OH","Medina","44251"
39.610600,-82.954700,"USH00331592","CIRCLEVILLE","OH","Pickaway","43113"
40.240300,-81.871100,"USH00331890","COSHOCTON WPC PLT","OH","Coshocton","43812"
41.277800,-84.385300,"USH00332098","DEFIANCE","OH","Defiance","43512"
40.317500,-83.073900,"USH00332119","DELAWARE","OH","Delaware","43015"
41.046100,-83.662200,"USH00332791","FINDLAY WPCC","OH","Hancock","45840"
40.100000,-84.650000,"USH00333375","GREENVILLE WTP","OH","Darke","45331"
39.200000,-83.616700,"USH00333758","HILLSBORO","OH","Highland","45133"
41.300000,-81.150000,"USH00333780","HIRAM","OH","Portage","44234"
40.648900,-83.606100,"USH00334189","KENTON","OH","Hardin","43326"
39.653900,-81.856900,"USH00335041","MC CONNELLSVILLE LK 7","OH","Morgan","43756"
40.550000,-81.916700,"USH00335297","MILLERSBURG","OH","Holmes","44654"
40.769200,-80.856100,"USH00335315","MILLPORT 4 NE","OH","Columbiana","44423"
41.266700,-82.616700,"USH00336118","NORWALK WWTP","OH","Erie","44846"
41.266700,-82.216700,"USH00336196","OBERLIN","OH","Lorain","44074"
39.838600,-81.916700,"USH00336600","PHILO 3 SW","OH","Muskingum","43771"
38.756900,-82.887200,"USH00336781","PORTSMOUTH-SCIOTOVILLE","OH","Scioto","45662"
41.116700,-83.166700,"USH00338313","TIFFIN","OH","Seneca","44883"
40.833300,-83.283300,"USH00338534","UPPER SANDUSKY","OH","Wyandot","43351"
40.100000,-83.783300,"USH00338552","URBANA WWTP","OH","Champaign","43078"
41.200000,-80.816700,"USH00338769","WARREN 3 S","OH","Trumbull","44485"
41.518300,-84.145300,"USH00338822","WAUSEON WTP","OH","Fulton","43567"
39.111400,-82.979700,"USH00338830","WAVERLY","OH","Pike","45690"
40.783300,-81.916700,"USH00339312","WOOSTER EXP STN","OH","Wayne","44691"
34.786400,-96.685000,"USH00340017","ADA","OK","Pontotoc","74820"
34.590300,-99.334400,"USH00340179","ALTUS IRIG RSCH STN","OK","Jackson","73521"
34.220800,-95.615000,"USH00340256","ANTLERS","OK","Pushmataha","74523"
34.171400,-97.129400,"USH00340292","ARDMORE","OK","Carter","73401"
36.768300,-96.026100,"USH00340548","BARTLESVILLE MUNI AP","OK","Washington","74003"
36.812500,-100.530800,"USH00340593","BEAVER","OK","Beaver","73932"
36.723600,-102.480600,"USH00340908","BOISE CITY 2 E","OK","Cimarron","73933"
36.800300,-99.640300,"USH00341243","BUFFALO 2 SSW","OK","Harper","73834"
35.175600,-98.579400,"USH00341504","CARNEGIE 5 NE","OK","Caddo","73015"
36.774700,-98.358300,"USH00341724","CHEROKEE","OK","Alfalfa","73728"
36.322500,-95.580800,"USH00341828","CLAREMORE 2 ENE","OK","Rogers","74019"
34.000300,-96.368600,"USH00342678","DURANT","OK","Bryan","74701"
36.419400,-97.874700,"USH00342912","ENID","OK","Garfield","73701"
35.216400,-99.862800,"USH00342944","ERICK","OK","Beckham","73645"
35.626700,-98.322500,"USH00343497","GEARY","OK","Blaine","73040"
36.591400,-101.618100,"USH00343628","GOODWELL RSCH STN","OK","Texas","73942"
35.816100,-97.395000,"USH00343821","GUTHRIE 5S","OK","Logan","73044"
35.585000,-99.395300,"USH00343871","HAMMON 3 SSW","OK","Roger Mills","73650"
36.094200,-97.835000,"USH00344055","HENNESSEY 4 ESE","OK","Kingfisher","73742"
34.989400,-99.052500,"USH00344204","HOBART MUNI AP","OK","Kiowa","73651"
35.056700,-96.386100,"USH00344235","HOLDENVILLE 2SSE","OK","Hughes","74848"
36.858900,-101.217200,"USH00344298","HOOKER","OK","Texas","73945"
36.722200,-97.790300,"USH00344573","JEFFERSON","OK","Grant","73766"
36.903100,-102.965000,"USH00344766","KENTON","OK","Cimarron","73946"
35.858300,-97.929400,"USH00344861","KINGFISHER","OK","Kingfisher","73750"
34.609700,-98.457200,"USH00345063","LAWTON","OK","Comanche","73505"
34.891100,-99.501700,"USH00345509","MANGUM","OK","Greer","73554"
35.505000,-96.976700,"USH00345779","MEEKER 5 W","OK","Lincoln","74855"
36.883300,-94.883300,"USH00345855","MIAMI","OK","Ottawa","74354"
35.778100,-95.333900,"USH00346130","MUSKOGEE","OK","Wagoner","74446"
36.228300,-99.170000,"USH00346139","MUTUAL","OK","Woodward","73853"
36.891400,-97.058600,"USH00346278","NEWKIRK 1NW","OK","Kay","74647"
36.121700,-98.315000,"USH00346629","OKEENE","OK","Blaine","73763"
35.425300,-96.303300,"USH00346638","OKEMAH","OK","Okfuskee","74859"
35.623900,-96.025000,"USH00346670","OKMULGEE WTR WKS","OK","Okmulgee","74447"
34.725300,-97.281400,"USH00346926","PAULS VALLEY 4 WSW","OK","Garvin","73075"
36.669200,-96.347200,"USH00346935","PAWHUSKA","OK","Osage","74056"
36.288600,-97.289700,"USH00347012","PERRY","OK","Noble","73077"
35.053900,-94.626400,"USH00347254","POTEAU WTR WKS","OK","Le Flore","74953"
36.117500,-97.095000,"USH00348501","STILLWATER 2 W","OK","Payne","74078"
35.936900,-94.964400,"USH00348677","TAHLEQUAH","OK","Cherokee","74464"
34.174700,-97.996400,"USH00349395","WAURIKA","OK","Jefferson","73573"
35.520000,-98.698600,"USH00349422","WEATHERFORD","OK","Custer","73096"
35.481400,-95.203900,"USH00349445","WEBBERS FALLS 5 WSW","OK","Muskogee","74470"
42.212800,-122.714400,"USH00350304","ASHLAND","OR","Jackson","97540"
46.156900,-123.882500,"USH00350328","ASTORIA AP PORT OF","OR","Clatsop","97121"
44.842800,-117.808600,"USH00350412","BAKER CITY AP","OR","Baker","97814"
44.056900,-121.285000,"USH00350694","BEND","OR","Deschutes","97702"
42.030000,-124.245300,"USH00351055","BROOKINGS 2 SE","OR","Curry","97415"
44.391400,-122.481100,"USH00351433","CASCADIA","OR","Linn","97329"
45.232500,-120.181700,"USH00351765","CONDON","OR","Gilliam","97823"
44.634200,-123.190000,"USH00351862","CORVALLIS STATE UNIV","OR","Linn","97321"
43.791700,-123.027500,"USH00351897","COTTAGE GROVE 1 NNE","OR","Lane","97424"
42.896700,-122.132800,"USH00351946","CRATER LAKE NPS HQ","OR","Klamath","97604"
42.944700,-117.338900,"USH00352135","DANNER","OR","Malheur","97910"
43.665600,-123.327500,"USH00352406","DRAIN","OR","Douglas","97435"
45.453900,-121.130300,"USH00352440","DUFUR","OR","Wasco","97021"
45.524700,-123.102800,"USH00352997","FOREST GROVE","OR","Washington","97113"
43.393600,-121.212200,"USH00353095","FREMONT 5 NW","OR","Lake","97735"
42.424400,-123.323600,"USH00353445","GRANTS PASS","OR","Josephine","97527"
45.448600,-122.154700,"USH00353770","HEADWORKS PORTLAND WTR","OR","Clackamas","97055"
45.365300,-119.563900,"USH00353827","HEPPNER","OR","Morrow","97836"
45.828900,-119.263600,"USH00353847","HERMISTON 1 SE","OR","Umatilla","97838"
45.684700,-121.517500,"USH00354003","HOOD RIVER EXP STN","OR","Hood River","97031"
42.200800,-121.781400,"USH00354506","KLAMATH FALLS 2 SSW","OR","Klamath","97634"
42.213900,-120.363600,"USH00354670","LAKEVIEW 2 NNW","OR","Lake","97630"
43.265000,-118.844700,"USH00355162","MALHEUR REFUGE HQ","OR","Harney","97738"
44.178100,-122.115600,"USH00355362","MCKENZIE BRG RS","OR","Lane","97413"
45.221400,-123.162200,"USH00355384","MC MINNVILLE","OR","Yamhill","97127"
45.942800,-118.408900,"USH00355593","MILTON FREEWATER","OR","Umatilla","97862"
45.482500,-120.723600,"USH00355734","MORO","OR","Sherman","97039"
44.643100,-124.055600,"USH00356032","NEWPORT","OR","Lincoln","97365"
43.413300,-124.243600,"USH00356073","NORTH BEND FCWOS","OR","Coos","97459"
42.692200,-120.540300,"USH00356426","PAISLEY","OR","Lake","97636"
45.475600,-118.825300,"USH00356634","PILOT ROCK 1 SE","OR","Umatilla","97868"
44.302200,-120.808100,"USH00356883","PRINEVILLE","OR","Crook","97753"
42.734200,-122.516400,"USH00356907","PROSPECT 2 SW","OR","Jackson","97536"
42.950600,-123.357200,"USH00357169","RIDDLE","OR","Douglas","97469"
43.213100,-123.365800,"USH00357331","ROSEBURG KQEN","OR","Douglas","97495"
45.121900,-122.070000,"USH00358466","THREE LYNX","OR","Clackamas","97067"
45.456700,-123.872800,"USH00358494","TILLAMOOK 1 W","OR","Tillamook","97134"
45.208100,-117.875800,"USH00358746","UNION EXP STN","OR","Union","97867"
43.981400,-117.243900,"USH00358797","VALE","OR","Malheur","97918"
45.572200,-117.531400,"USH00358997","WALLOWA","OR","Wallowa","97885"
40.650800,-75.449200,"USH00360106","ALLENTOWN AP","PA","Lehigh","18032"
39.935300,-77.639400,"USH00361354","CHAMBERSBURG 1 ESE","PA","Franklin","17201"
39.805000,-77.229200,"USH00362537","EISENHOWER NHS","PA","Adams","17325"
42.080000,-80.182500,"USH00362682","ERIE WSO AP","PA","Erie","16506"
41.400300,-79.830300,"USH00363028","FRANKLIN","PA","Venango","16323"
41.416700,-80.366700,"USH00363526","GREENVILLE 2 NE","PA","Mercer","16125"
40.333300,-78.916700,"USH00364385","JOHNSTOWN","PA","Cambria","15901"
40.333300,-76.466700,"USH00364896","LEBANON 2 W","PA","Lebanon","17042"
41.851100,-75.858300,"USH00365915","MONTROSE","PA","Susquehanna","18843"
41.017200,-80.361900,"USH00366233","NEW CASTLE 1 N","PA","Lawrence","16105"
40.800000,-75.616700,"USH00366689","PALMERTON","PA","Carbon","18030"
41.739400,-75.446400,"USH00367029","PLEASANT MT 1 W","PA","Susquehanna","18430"
40.426900,-75.931900,"USH00367322","READING 4 NNW","PA","Berks","19605"
41.420000,-78.749700,"USH00367477","RIDGWAY","PA","Elk","15853"
40.783100,-76.861100,"USH00367931","SELINSGROVE 2 S","PA","Snyder","17870"
40.793300,-77.867200,"USH00368449","STATE COLLEGE","PA","Centre","16802"
41.012500,-75.190600,"USH00368596","STROUDSBURG","PA","Monroe","18301"
41.751100,-76.443100,"USH00368905","TOWANDA 1 S","PA","Bradford","18848"
39.915000,-79.719200,"USH00369050","UNIONTOWN 1 NE","PA","Fayette","15472"
41.850000,-79.150000,"USH00369298","WARREN","PA","Warren","16365"
41.700300,-77.389400,"USH00369408","WELLSBORO 4 SW","PA","Tioga","16901"
39.970800,-75.635000,"USH00369464","WEST CHESTER 2 NW","PA","Chester","19380"
41.243300,-76.921700,"USH00369728","WILLIAMSPORT RGNL AP","PA","Lycoming","17752"
39.916700,-76.750000,"USH00369933","YORK 3 SSW PUMP","PA","York","17403"
41.166700,-71.583300,"USH00370896","BLOCK ISLAND STATE AP","RI","Washington","02807"
41.490600,-71.541400,"USH00374266","KINGSTON","RI","Washington","02881"
41.721900,-71.432500,"USH00376698","PROVIDENCE WSO AP","RI","Kent","02886"
33.492500,-81.695800,"USH00380074","AIKEN 5SE","SC","Aiken","29803"
34.528300,-82.660600,"USH00380165","ANDERSON","SC","Anderson","29621"
32.395300,-80.695600,"USH00380559","BEAUFORT WWTP","SC","Beaufort","29935"
33.363100,-81.329200,"USH00380764","BLACKVILLE 3 W","SC","Barnwell","29826"
34.090600,-82.588300,"USH00381277","CALHOUN FALLS","SC","Abbeville","29628"
34.242800,-80.656400,"USH00381310","CAMDEN 3 W","SC","Kershaw","29078"
32.780000,-79.931900,"USH00381549","CHARLESTON CITY","SC","Charleston","29401"
34.731900,-79.883300,"USH00381588","CHERAW","SC","Marlboro","29596"
34.660300,-82.823600,"USH00381770","CLEMSON UNIV","SC","Pickens","29634"
33.983100,-81.016700,"USH00381944","COLUMBIA UNIV OF SC","SC","Richland","29201"
33.831400,-79.055800,"USH00381997","CONWAY","SC","Horry","29527"
34.301100,-79.876700,"USH00382260","DARLINGTON","SC","Darlington","29532"
33.361900,-79.223900,"USH00383468","GEORGETOWN 2 E","SC","Georgetown","29440"
34.884700,-82.223900,"USH00383747","GRNVL SPART INTL AP","SC","Greenville","29650"
34.199700,-82.171100,"USH00383754","GREENWOOD","SC","Greenwood","29649"
34.536700,-80.597200,"USH00384690","KERSHAW 1SW","SC","Lancaster","29067"
33.677500,-79.828300,"USH00384753","KINGSTREE","SC","Williamsburg","29556"
34.498900,-82.021900,"USH00385017","LAURENS","SC","Laurens","29360"
34.194200,-81.415000,"USH00385200","LITTLE MTN","SC","Newberry","29122"
34.297800,-81.623600,"USH00386209","NEWBERRY","SC","Newberry","29108"
33.488600,-80.873300,"USH00386527","ORANGEBURG 2","SC","Orangeburg","29117"
33.997800,-81.774700,"USH00387631","SALUDA","SC","Saluda","29138"
34.635000,-81.520600,"USH00387722","SANTUCK","SC","Union","29379"
33.036700,-80.232500,"USH00388426","SUMMERVILLE 4W","SC","Dorchester","29483"
33.936400,-80.356900,"USH00388440","SUMTER","SC","Sumter","29153"
34.748300,-83.084200,"USH00388887","WALHALLA","SC","Oconee","29691"
34.373900,-81.092800,"USH00389327","WINNSBORO","SC","Fairfield","29180"
34.938100,-81.031700,"USH00389350","WINTHROP UNIV","SC","York","29733"
32.680000,-80.841700,"USH00389469","YEMASSEE","SC","Hampton","29945"
45.443300,-98.413100,"USH00390020","ABERDEEN RGNL AP","SD","Brown","57427"
43.489200,-99.063100,"USH00390043","ACADEMY 2NE","SD","Charles Mix","57369"
43.656700,-97.785300,"USH00390128","ALEXANDRIA","SD","Hanson","57311"
43.305600,-96.591700,"USH00391392","CANTON","SD","Lincoln","57013"
44.881700,-97.732500,"USH00391739","CLARK","SD","Clark","57225"
43.961100,-101.860600,"USH00391972","COTTONWOOD 2 E","SD","Haakon","57567"
45.048100,-101.599200,"USH00392429","DUPREE","SD","Ziebach","57623"
45.764400,-99.635300,"USH00392797","EUREKA","SD","McPherson","57437"
45.036400,-99.134200,"USH00392927","FAULKTON 1 NW","SD","Faulk","57438"
44.042200,-98.070000,"USH00393029","FORESTBURG 3 NE","SD","Sanborn","57314"
44.056900,-99.071900,"USH00393217","GANN VALLEY 4NW","SD","Buffalo","57341"
44.522200,-99.455000,"USH00393832","HIGHMORE 1 W","SD","Hyde","57345"
43.437800,-103.473900,"USH00394007","HOT SPRINGS","SD","Fall River","57747"
44.012200,-97.524200,"USH00394037","HOWARD","SD","Miner","57349"
43.907200,-99.862800,"USH00394516","KENNEBEC","SD","Lyman","57544"
45.155000,-98.582500,"USH00395456","MELLETTE 4 W","SD","Spink","57465"
43.235800,-97.571400,"USH00395481","MENNO","SD","Hutchinson","57045"
45.283600,-96.668900,"USH00395536","MILBANK 4 NW","SD","Roberts","57227"
43.889400,-100.707800,"USH00395891","MURDO","SD","Jones","57559"
44.441900,-100.417500,"USH00396170","OAHE DAM","SD","Hughes","57501"
44.381400,-100.285600,"USH00396597","PIERRE RGNL AP","SD","Hughes","57501"
44.115000,-103.282800,"USH00396947","RAPID CITY 4NW","SD","Pennington","57701"
42.762500,-96.919400,"USH00398622","VERMILLION 2 SE","NE","Dixon","68751"
44.904700,-97.149400,"USH00398932","WATERTOWN RGNL AP","SD","Codington","57201"
43.497800,-100.479400,"USH00399442","WOOD","SD","Mellette","57585"
36.546700,-87.356700,"USH00401790","CLARKSVILLE WWTP","TN","Montgomery","37040"
34.993900,-84.375800,"USH00402024","COPPERHILL","TN","Polk","37326"
35.549700,-89.700000,"USH00402108","COVINGTON 3 SW","TN","Tipton","38019"
36.014700,-85.131100,"USH00402202","CROSSVILLE ED & RESEARCH","TN","Cumberland","38578"
36.074700,-87.393600,"USH00402489","DICKSON","TN","Dickson","37055"
36.481900,-87.862800,"USH00402589","DOVER 1 W","TN","Stewart","37058"
35.621400,-88.845600,"USH00404561","JACKSON EXP STN","TN","Madison","38301"
35.413900,-86.808600,"USH00405187","LEWISBURG EXP STN","TN","Marshall","37091"
35.671700,-85.781100,"USH00405882","MC MINNVILLE","TN","Warren","37110"
35.920300,-86.372800,"USH00406371","MURFREESBORO 5 N","TN","Rutherford","37129"
35.983300,-83.200800,"USH00406534","NEWPORT 1 NW","TN","Cocke","37821"
36.416100,-82.983900,"USH00407884","ROGERSVILLE 1 NE","TN","Hawkins","37857"
35.345300,-86.208900,"USH00409155","TULLAHOMA","TN","Coffee","37388"
36.392500,-89.031700,"USH00409219","UNION CITY","TN","Obion","38261"
35.304200,-87.759200,"USH00409502","WAYNESBORO","TN","Wayne","38485"
32.729400,-99.301700,"USH00410120","ALBANY","TX","Shackelford","76430"
27.728300,-98.067800,"USH00410144","ALICE","TX","Jim Wells","78332"
30.376400,-103.660000,"USH00410174","ALPINE","TX","Brewster","79831"
31.741400,-99.976400,"USH00410493","BALLINGER 2 NW","TX","Runnels","76821"
30.984400,-103.740300,"USH00410498","BALMORHEA","TX","Reeves","79718"
28.457500,-97.706100,"USH00410639","BEEVILLE 5 NE","TX","Bee","78102"
30.105800,-98.428600,"USH00410832","BLANCO","TX","Blanco","78606"
29.797800,-98.734700,"USH00410902","BOERNE","TX","Kendall","78006"
35.530300,-102.256400,"USH00411000","BOYS RANCH","TX","Oldham","79010"
30.159200,-96.397200,"USH00411048","BRENHAM","TX","Washington","77833"
31.738300,-98.945600,"USH00411138","BROWNWOOD 2ENE","TX","Brown","76802"
28.339200,-99.632800,"USH00411528","CATARINA","TX","Dimmit","78836"
33.616400,-95.071700,"USH00411772","CLARKSVILLE 2NE","TX","Red River","75426"
27.774200,-97.512200,"USH00412015","CORPUS CHRISTI AP","TX","Nueces","78406"
32.107800,-96.474700,"USH00412019","CORSICANA","TX","Navarro","75110"
33.651700,-101.245000,"USH00412121","CROSBYTON","TX","Crosby","79322"
29.056700,-96.231900,"USH00412266","DANEVANG 1 W","TX","Wharton","77432"
32.062800,-98.304700,"USH00412598","DUBLIN 2SE","TX","Erath","76446"
28.756700,-100.478900,"USH00412679","EAGLE PASS 3N","TX","Maverick","78852"
31.811100,-106.375800,"USH00412797","EL PASO AP","TX","El Paso","79925"
28.023900,-99.350800,"USH00412906","ENCINAL","TX","La Salle","78019"
27.139400,-98.120000,"USH00413063","FALFURRIAS","TX","Brooks","78355"
29.677800,-97.111100,"USH00413183","FLATONIA","TX","Fayette","78941"
30.907200,-102.915300,"USH00413280","FT STOCKTON","TX","Pecos","79735"
33.646100,-97.059200,"USH00413420","GAINESVILLE 5 ENE","TX","Cooke","76240"
33.167800,-96.098300,"USH00413734","GREENVILLE KGVL RADIO","TX","Hunt","75401"
29.470600,-96.939700,"USH00413873","HALLETTSVILLE 2 N","TX","Lavaca","77964"
33.157800,-99.745600,"USH00413992","HASKELL","TX","Haskell","79521"
31.071700,-98.184700,"USH00415018","LAMPASAS","TX","Lampasas","76550"
30.059200,-94.795000,"USH00415196","LIBERTY","TX","Liberty","77575"
30.742500,-98.654200,"USH00415272","LLANO","TX","Llano","78643"
29.675300,-97.656400,"USH00415429","LULING","TX","Caldwell","78648"
32.540300,-94.350800,"USH00415618","MARSHALL","TX","Harrison","75670"
31.133300,-102.221700,"USH00415707","MCCAMEY","TX","Upton","79752"
31.700300,-96.514200,"USH00415869","MEXIA","TX","Limestone","76667"
35.700000,-100.643600,"USH00415875","MIAMI","TX","Roberts","79059"
34.219200,-102.732800,"USH00416135","MULESHOE #1","TX","Bailey","79347"
29.719200,-98.118900,"USH00416276","NEW BRAUNFELS","TX","Comal","78130"
33.674400,-95.558600,"USH00416794","PARIS","TX","Lamar","75460"
31.416700,-103.500000,"USH00416892","PECOS","TX","Ward","79719"
34.189200,-101.702200,"USH00417079","PLAINVIEW","TX","Hale","79072"
34.276100,-99.757800,"USH00417336","QUANAH 2 SW","TX","Hardeman","79252"
26.376900,-98.811700,"USH00417622","RIO GRANDE CITY","TX","Starr","78582"
29.533300,-98.470000,"USH00417945","SAN ANTONIO INTL AP","TX","Bexar","78216"
32.713600,-102.659700,"USH00418201","SEMINOLE","TX","Gaines","79360"
32.710000,-100.911100,"USH00418433","SNYDER","TX","Scurry","79527"
36.337200,-102.075300,"USH00418692","STRATFORD","TX","Sherman","79084"
31.078100,-97.318300,"USH00418910","TEMPLE","TX","Bell","76508"
32.748300,-97.770000,"USH00419532","WEATHERFORD","TX","Parker","76086"
37.440300,-112.481900,"USH00420086","ALTON","UT","Kane","84710"
37.613100,-109.484700,"USH00420738","BLANDING","UT","San Juan","84511"
37.282800,-109.557800,"USH00420788","BLUFF","UT","San Juan","84512"
41.548100,-112.110600,"USH00421731","CORINNE","UT","Box Elder","84302"
39.287200,-112.651900,"USH00422101","DESERET","UT","Millard","84635"
40.167800,-110.395000,"USH00422253","DUCHESNE","UT","Duchesne","84021"
37.768600,-111.597800,"USH00422592","ESCALANTE","UT","Garfield","84726"
41.022200,-111.935300,"USH00422726","FARMINGTON 3 NW","UT","Davis","84037"
38.966400,-112.327800,"USH00422828","FILLMORE","UT","Millard","84631"
40.284200,-109.861100,"USH00422996","FT DUCHESNE","UT","Uintah","84026"
38.990600,-110.154400,"USH00423418","GREEN RIVER AVIATION","UT","Emery","84525"
38.370600,-110.715300,"USH00423611","HANKSVILLE","UT","Wayne","84734"
40.491700,-111.426100,"USH00423809","HEBER","UT","Wasatch","84049"
37.028600,-112.536700,"USH00424508","KANAB","UT","Kane","84755"
41.825000,-111.320800,"USH00424856","LAKETOWN","UT","Rich","84038"
39.560800,-111.865300,"USH00425065","LEVAN","UT","Juab","84639"
41.745600,-111.803300,"USH00425186","LOGAN UTAH ST UNIV","UT","Cache","84341"
39.258300,-111.630600,"USH00425402","MANTI","UT","Sanpete","84642"
38.450000,-112.229200,"USH00425477","MARYSVALE","UT","Piute","84750"
38.574400,-109.545800,"USH00425733","MOAB","UT","Grand","84532"
37.798100,-113.925600,"USH00425752","MODENA","UT","Iron","84714"
41.042800,-111.672200,"USH00425826","MORGAN POWER & LIGHT","UT","Morgan","84050"
39.712200,-111.831900,"USH00426135","NEPHI","UT","Juab","84648"
41.244200,-111.946400,"USH00426404","OGDEN PIONEER P H","UT","Weber","84403"
37.823900,-112.441900,"USH00426601","PANGUITCH","UT","Garfield","84759"
37.849700,-112.827800,"USH00426686","PAROWAN PWR","UT","Iron","84761"
38.761900,-112.077500,"USH00427260","RICHFIELD RADIO KSVC","UT","Sevier","84730"
37.106900,-113.561100,"USH00427516","ST GEORGE","UT","Washington","84780"
38.913900,-111.416100,"USH00427559","SALINA 24 E","UT","Emery","84522"
39.245300,-112.106700,"USH00427714","SCIPIO","UT","Millard","84656"
39.684700,-111.204700,"USH00427729","SCOFIELD-SKYLINE MINE","UT","Carbon","84526"
40.545300,-111.504200,"USH00427909","SNAKE CREEK POWERHOUSE","UT","Wasatch","84049"
40.079700,-111.604400,"USH00428119","SPANISH FORK PWR HOUSE","UT","Utah","84664"
38.966700,-109.716700,"USH00428705","THOMPSON","UT","Emery","84525"
40.527800,-112.297500,"USH00428771","TOOELE","UT","Tooele","84074"
40.359700,-111.897200,"USH00428973","UTAH LAKE LEHI","UT","Utah","84045"
40.426900,-109.553100,"USH00429111","VERNAL 2SW","UT","Uintah","84039"
40.720600,-114.035800,"USH00429382","WENDOVER AP AWOS","NV","Elko","89883"
41.525000,-111.149400,"USH00429595","WOODRUFF","UT","Rich","84086"
37.208300,-112.984200,"USH00429717","ZION NP","UT","Washington","84767"
44.468100,-73.150300,"USH00431081","BURLINGTON WSO AP","VT","Chittenden","05439"
43.384700,-72.598900,"USH00431243","CAVENDISH","VT","Windsor","05142"
43.983300,-72.450000,"USH00431360","CHELSEA","VT","Orange","05038"
43.957200,-73.210600,"USH00431580","CORNWALL","VT","Addison","05753"
44.909400,-72.808300,"USH00432769","ENOSBURG FALLS","VT","Franklin","05450"
44.420000,-72.019400,"USH00437054","SAINT JOHNSBURY","VT","Caledonia","05819"
44.626400,-73.303100,"USH00437607","SOUTH HERO","VT","Grand Isle","05486"
44.072500,-72.973600,"USH00437612","SOUTH LINCOLN","VT","Washington","05674"
37.201700,-80.413300,"USH00440766","BLACKSBURG NWSO","VA","Montgomery","24060"
37.709200,-78.288600,"USH00440993","BREMO BLUFF","VA","Fluvanna","23022"
37.092500,-81.335800,"USH00441209","BURKES GARDEN","VA","Bland","24318"
38.032500,-78.523100,"USH00441593","CHARLOTTESVILLE 2W","VA","Albemarle","22904"
38.455300,-78.935300,"USH00442208","DALE ENTERPRISE","VA","Harrisonburg","22807"
36.586900,-79.388600,"USH00442245","DANVILLE","VA","Danville","24540"
37.326400,-78.386400,"USH00442941","FARMVILLE 2 N","VA","Prince Edward","23909"
38.316700,-77.450000,"USH00443192","FREDERICKSBURG NP","VA","Fredericksburg","22401"
37.299200,-77.277200,"USH00444101","HOPEWELL","VA","Hopewell","23860"
37.996900,-79.831700,"USH00444128","HOT SPRINGS","VA","Bath","24412"
37.795000,-79.413600,"USH00444876","LEXINGTON","VA","Buena Vista","24416"
39.087800,-77.692800,"USH00444909","LINCOLN","VA","Loudoun","20158"
36.903300,-76.192200,"USH00446139","NORFOLK INTL AP","VA","Norfolk","23518"
36.738100,-82.996700,"USH00446626","PENNINGTON GAP","VA","Lee","24277"
38.232200,-78.120300,"USH00446712","PIEDMONT RSCH STN","VA","Orange","22960"
36.976900,-79.896100,"USH00447338","ROCKY MT","VA","Franklin","24151"
38.181400,-79.090300,"USH00448062","STAUNTON WATER TRMTMT PLT","VA","Staunton","24401"
37.301700,-76.703900,"USH00449151","WILLIAMSBURG 2 N","VA","Williamsburg","23187"
38.903600,-78.485000,"USH00449263","WOODSTOCK 2 NE","VA","Shenandoah","22664"
46.965800,-123.829200,"USH00450008","ABERDEEN","WA","Grays Harbor","98550"
48.717800,-122.511400,"USH00450587","BELLINGHAM 3 SSW","WA","Whatcom","98225"
48.977500,-122.792800,"USH00450729","BLAINE","WA","Whatcom","98230"
47.169400,-122.003600,"USH00450945","BUCKLEY 1 NE","WA","Pierce","98321"
47.414400,-121.756100,"USH00451233","CEDAR LAKE","WA","King","98045"
46.720000,-122.952800,"USH00451276","CENTRALIA","WA","Lewis","98531"
48.967200,-122.329200,"USH00451484","CLEARBROOK","WA","Whatcom","98276"
47.185600,-120.946900,"USH00451504","CLE ELUM","WA","Kittitas","98943"
48.547200,-117.901900,"USH00451630","COLVILLE","WA","Stevens","99114"
48.546700,-119.749200,"USH00451666","CONCONULLY","WA","Okanogan","98819"
47.370600,-123.160000,"USH00451939","CUSHMAN POWERHOUSE 2","WA","Mason","98592"
47.650300,-118.145600,"USH00452007","DAVENPORT","WA","Lincoln","99122"
46.315300,-118.002200,"USH00452030","DAYTON 1 WSW","WA","Columbia","99328"
46.969200,-120.540000,"USH00452505","ELLENSBURG","WA","Kittitas","98926"
47.975300,-122.195000,"USH00452675","EVERETT","WA","Snohomish","98207"
47.955800,-124.353900,"USH00452914","FORKS 1 E","WA","Clallam","98305"
45.808100,-120.842800,"USH00453222","GOLDENDALE","WA","Klickitat","98620"
46.211100,-119.101100,"USH00454154","KENNEWICK","WA","Benton","99336"
46.367500,-124.037800,"USH00454748","LONG BEACH EXP STN","WA","Pacific","98624"
46.749200,-121.812000,"USH00454764","LONGMIRE RAINIER NPS","WA","Pierce","98304"
46.150600,-122.916400,"USH00454769","LONGVIEW","WA","Cowlitz","98626"
47.135800,-122.255800,"USH00455224","MC MILLIN RSVR","WA","Pierce","98374"
48.911400,-117.806900,"USH00455946","NORTHPORT","WA","Stevens","99157"
47.328600,-118.699700,"USH00456039","ODESSA","WA","Lincoln","99159"
48.611700,-122.806400,"USH00456096","OLGA 2 SE","WA","San Juan","98279"
46.468600,-117.589400,"USH00456610","POMEROY","WA","Garfield","99347"
48.113900,-123.431700,"USH00456624","PORT ANGELES","WA","Clallam","98362"
48.116100,-122.758600,"USH00456678","PORT TOWNSEND","WA","Jefferson","98358"
46.756400,-117.191100,"USH00456789","PULLMAN 2 NW","WA","Whitman","99163"
46.653300,-123.730000,"USH00456914","RAYMOND 2 S","WA","Pacific","98577"
47.113900,-118.377200,"USH00457059","RITZVILLE 1 SSE","WA","Adams","99169"
47.089400,-117.593100,"USH00457267","SAINT JOHN","WA","Whitman","99171"
47.650000,-122.300000,"USH00457458","SEATTLE URBAN SITE","WA","King","98195"
48.495800,-122.235500,"USH00457507","SEDRO WOOLLEY","WA","Skagit","98235"
47.541400,-121.836100,"USH00457773","SNOQUALMIE FALLS","WA","King","98065"
47.621700,-117.528100,"USH00457938","SPOKANE INTL AP","WA","Spokane","99224"
48.351100,-120.726700,"USH00458059","STEHEKIN 4 NW","WA","Chelan","98852"
46.323600,-120.010300,"USH00458207","SUNNYSIDE","WA","Yakima","98938"
45.677800,-122.651900,"USH00458773","VANCOUVER 4 NNE","WA","Clark","98665"
46.100000,-118.283300,"USH00458928","WALLA WALLA FAA AP","WA","Walla Walla","99362"
47.647800,-120.069700,"USH00459012","WATERVILLE","WA","Douglas","98843"
47.424700,-120.315000,"USH00459074","WENATCHEE","WA","Chelan","98801"
47.756900,-118.677500,"USH00459238","WILBUR","WA","Lincoln","99185"
48.453900,-120.193600,"USH00459376","WINTHROP 1 WSW","WA","Okanogan","98856"
38.980000,-80.220600,"USH00461220","BUCKHANNON","WV","Upshur","26201"
39.204700,-81.157200,"USH00461330","CAIRO","WV","Ritchie","26337"
38.933900,-80.832500,"USH00463544","GLENVILLE","WV","Gilmer","26351"
37.856400,-80.404200,"USH00465224","LEWISBURG 3 N","WV","Greenbrier","24957"
39.543600,-80.464700,"USH00465626","MANNINGTON 8 WNW","WV","Wetzel","26437"
39.401900,-77.984400,"USH00465707","MARTINSBURG E WV RGNL","WV","Berkeley","25405"
39.103100,-79.665800,"USH00466867","PARSONS 1 NE","WV","Tucker","26269"
38.666700,-80.200000,"USH00466989","PICKENS 2 N","WV","Randolph","26230"
37.574400,-81.535600,"USH00467029","PINEVILLE","WV","Wyoming","24874"
38.800800,-81.361900,"USH00468384","SPENCER","WV","Roane","25276"
40.275300,-80.611900,"USH00469368","WELLSBURG WTR TRMT PL","OH","Jefferson","43913"
37.673100,-82.276100,"USH00469610","WILLIAMSON","KY","Pike","41503"
38.527800,-81.915300,"USH00469683","WINFIELD LOCKS","WV","Putnam","25213"
46.583100,-90.967800,"USH00470349","ASHLAND EXP FARM","WI","Ashland","54806"
44.855800,-88.988900,"USH00470991","BOWLER","WI","Shawano","54416"
42.618100,-89.386100,"USH00471078","BRODHEAD","WI","Green","53520"
42.670800,-90.118300,"USH00472001","DARLINGTON","WI","Lafayette","53530"
43.796100,-88.450600,"USH00472839","FOND DU LAC","WI","Fond du Lac","54935"
44.119200,-89.534200,"USH00473405","HANCOCK EXP FARM","WI","Waushara","54943"
42.827800,-90.788900,"USH00474546","LANCASTER 4 WSW","WI","Grant","53813"
44.086900,-87.652200,"USH00475017","MANITOWOC","WI","Manitowoc","54220"
44.631900,-90.131400,"USH00475120","MARSHFIELD EXP FARM","WI","Wood","54441"
45.130800,-90.343900,"USH00475255","MEDFORD","WI","Taylor","54451"
43.071900,-88.029400,"USH00475474","MILWAUKEE MT MARY COL","WI","Milwaukee","53222"
45.886400,-89.732200,"USH00475516","MINOCQUA","WI","Oneida","54548"
44.529700,-90.638300,"USH00475808","NEILLSVILLE 3 SW","WI","Clark","54456"
44.358900,-88.718900,"USH00475932","NEW LONDON","WI","Waupaca","54961"
44.883600,-87.953900,"USH00476208","OCONTO 4 W","WI","Oconto","54153"
44.020600,-88.558100,"USH00476330","OSHKOSH","WI","Winnebago","54901"
43.527800,-89.434200,"USH00476718","PORTAGE","WI","Columbia","53901"
43.051400,-91.135000,"USH00476827","PRAIRIE DU CHIEN","IA","Clayton","52158"
42.702200,-87.786100,"USH00476922","RACINE","WI","Racine","53403"
45.823600,-91.876100,"USH00478027","SPOONER AG RES STN","WI","Washburn","54801"
44.968600,-90.938900,"USH00478110","STANLEY","WI","Chippewa","54768"
43.559400,-90.876100,"USH00478827","VIROQUA","WI","Vernon","54665"
43.174200,-88.736400,"USH00478919","WATERTOWN","WI","Jefferson","53094"
43.772800,-111.033900,"USH00480140","ALTA 1 NNW","WY","Teton","83414"
44.378900,-108.031400,"USH00480540","BASIN","WY","Big Horn","82410"
42.633900,-106.377500,"USH00480552","BATES CREEK #2","WY","Natrona","82644"
41.150000,-104.816700,"USH00481675","CHEYENNE WSFO AP","WY","Laramie","82005"
41.759200,-104.821900,"USH00481730","CHUGWATER","WY","Platte","82210"
44.521900,-109.063300,"USH00481840","CODY","WY","Park","82440"
44.871100,-104.153300,"USH00481905","COLONY","WY","Crook","82710"
43.228100,-108.948900,"USH00482595","DIVERSION DAM","WY","Fremont","82516"
43.539700,-109.655300,"USH00482715","DUBOIS","WY","Fremont","82513"
41.265000,-110.950800,"USH00483100","EVANSTON 1 E","UT","Rich","84086"
41.531400,-109.476700,"USH00484065","GREEN RIVER","WY","Sweetwater","82935"
44.561900,-110.398600,"USH00485345","LAKE YELLOWSTONE","WY","Park","82190"
41.312500,-105.674400,"USH00485415","LARAMIE RGNL AP","WY","Albany","82073"
42.750600,-104.481100,"USH00485830","LUSK 2 SW","WY","Niobrara","82227"
43.413100,-106.277200,"USH00486195","MIDWEST","WY","Natrona","82643"
43.856700,-110.588900,"USH00486440","MORAN 5 WNW","WY","Teton","83012"
43.858100,-104.213600,"USH00486660","NEWCASTLE","WY","Weston","82723"
43.245800,-108.694200,"USH00487115","PAVILLION","WY","Fremont","82516"
41.172200,-104.158300,"USH00487240","PINE BLUFFS 5W","WY","Laramie","82082"
42.879700,-109.864200,"USH00487260","PINEDALE","WY","Sublette","82941"
44.776400,-108.759200,"USH00487388","POWELL FLD STN","WY","Park","82440"
43.030800,-108.374200,"USH00487760","RIVERTON","WY","Fremont","82501"
41.594200,-109.065300,"USH00487845","ROCK SPRINGS AP","WY","Sweetwater","82945"
41.452800,-106.805300,"USH00487990","SARATOGA","WY","Carbon","82331"
44.840600,-106.838300,"USH00488160","SHERIDAN FLD STN","WY","Sheridan","82801"
42.080300,-104.223600,"USH00488995","TORRINGTON EXP FARM","WY","Goshen","82223"
42.110600,-104.949200,"USH00489615","WHEATLAND 4 N","WY","Platte","82201"
44.010800,-107.968600,"USH00489770","WORLAND","WY","Washakie","82401"
44.976700,-110.696400,"USH00489905","YELLOWSTONE PK MAMMOTH","MT","Park","59030"
